{
  "type": "FeatureCollection",
  "metadata": {
    "city_id": "curico",
    "city_name": "Curicó",
    "layer_id": "network-expansion",
    "layer_name": "Expansión de red",
    "badge": "ANÁLISIS",
    "status": "ALGORITHMIC_EXPANSION",
    "model_version": "3.6-iterative-topological",
    "total_phases": 6,
    "total_expansion_km": 6.83,
    "total_new_urban_access_nodes": 1097,
    "total_new_nodes": 1097,
    "total_coverage_gain_pct": 8.9,
    "total_new_pois": 55,
    "expansion_types_summary": {
      "trunk_extension": 4,
      "branch": 1,
      "continuation": 1
    },
    "urban_contexts_summary": {
      "urban": 6
    },
    "poi_deduplication": {
      "raw_pois_count": 592,
      "deduplicated_pois_count": 562
    },
    "discovered_clusters": [
      {
        "id": "cluster-curico-01",
        "centroid": [
          -71.256044,
          -34.99379
        ],
        "node_count": 533,
        "mean_distance_to_cycle_network": 693.7,
        "max_distance_to_cycle_network": 1296.7,
        "bbox": [
          -35.003772,
          -71.263519,
          -34.980104,
          -71.246132
        ],
        "nearby_pois_count": 61,
        "coverage_need_score": 2004.5
      },
      {
        "id": "cluster-curico-02",
        "centroid": [
          -71.201649,
          -34.937134
        ],
        "node_count": 518,
        "mean_distance_to_cycle_network": 1387.0,
        "max_distance_to_cycle_network": 2869.2,
        "bbox": [
          -34.948569,
          -71.211465,
          -34.923989,
          -71.191491
        ],
        "nearby_pois_count": 20,
        "coverage_need_score": 2194.9
      },
      {
        "id": "cluster-curico-03",
        "centroid": [
          -71.257625,
          -34.962801
        ],
        "node_count": 487,
        "mean_distance_to_cycle_network": 650.6,
        "max_distance_to_cycle_network": 1400.0,
        "bbox": [
          -34.973175,
          -71.273168,
          -34.95747,
          -71.245924
        ],
        "nearby_pois_count": 11,
        "coverage_need_score": 1252.7
      },
      {
        "id": "cluster-curico-04",
        "centroid": [
          -71.226533,
          -34.965317
        ],
        "node_count": 308,
        "mean_distance_to_cycle_network": 473.1,
        "max_distance_to_cycle_network": 611.8,
        "bbox": [
          -34.967957,
          -71.23563,
          -34.960174,
          -71.218134
        ],
        "nearby_pois_count": 55,
        "coverage_need_score": 1259.4
      },
      {
        "id": "cluster-curico-05",
        "centroid": [
          -71.288509,
          -34.975863
        ],
        "node_count": 302,
        "mean_distance_to_cycle_network": 1874.4,
        "max_distance_to_cycle_network": 3205.6,
        "bbox": [
          -34.984929,
          -71.303309,
          -34.971078,
          -71.274012
        ],
        "nearby_pois_count": 3,
        "coverage_need_score": 1470.2
      },
      {
        "id": "cluster-curico-06",
        "centroid": [
          -71.286808,
          -34.959975
        ],
        "node_count": 229,
        "mean_distance_to_cycle_network": 2259.5,
        "max_distance_to_cycle_network": 3079.3,
        "bbox": [
          -34.968098,
          -71.29709,
          -34.954031,
          -71.273773
        ],
        "nearby_pois_count": 1,
        "coverage_need_score": 1275.9
      },
      {
        "id": "cluster-curico-07",
        "centroid": [
          -71.226396,
          -34.982832
        ],
        "node_count": 206,
        "mean_distance_to_cycle_network": 466.1,
        "max_distance_to_cycle_network": 663.5,
        "bbox": [
          -34.98764,
          -71.229744,
          -34.979323,
          -71.218211
        ],
        "nearby_pois_count": 39,
        "coverage_need_score": 866.0
      },
      {
        "id": "cluster-curico-08",
        "centroid": [
          -71.269037,
          -34.948716
        ],
        "node_count": 114,
        "mean_distance_to_cycle_network": 929.0,
        "max_distance_to_cycle_network": 1233.9,
        "bbox": [
          -34.954113,
          -71.272933,
          -34.944031,
          -71.264631
        ],
        "nearby_pois_count": 0,
        "coverage_need_score": 325.8
      },
      {
        "id": "cluster-curico-09",
        "centroid": [
          -71.204998,
          -34.995545
        ],
        "node_count": 105,
        "mean_distance_to_cycle_network": 737.7,
        "max_distance_to_cycle_network": 1250.1,
        "bbox": [
          -35.001205,
          -71.210556,
          -34.989589,
          -71.197532
        ],
        "nearby_pois_count": 2,
        "coverage_need_score": 283.9
      },
      {
        "id": "cluster-curico-10",
        "centroid": [
          -71.267334,
          -34.939528
        ],
        "node_count": 100,
        "mean_distance_to_cycle_network": 985.9,
        "max_distance_to_cycle_network": 1161.7,
        "bbox": [
          -34.94376,
          -71.272423,
          -34.936785,
          -71.25985
        ],
        "nearby_pois_count": 1,
        "coverage_need_score": 309.2
      }
    ],
    "evaluated_candidates_count": 138,
    "last_updated": "2026-09-14T19:25:37.987744+00:00"
  },
  "features": [
    {
      "type": "Feature",
      "geometry": {
        "type": "LineString",
        "coordinates": [
          [
            -71.248124,
            -34.994405
          ],
          [
            -71.248705,
            -34.994474
          ],
          [
            -71.249916,
            -34.994125
          ],
          [
            -71.250453,
            -34.993969
          ],
          [
            -71.251309,
            -34.993722
          ],
          [
            -71.251863,
            -34.993562
          ],
          [
            -71.251963,
            -34.993525
          ],
          [
            -71.252243,
            -34.993435
          ],
          [
            -71.252333,
            -34.993406
          ],
          [
            -71.252659,
            -34.9933
          ],
          [
            -71.253085,
            -34.993162
          ],
          [
            -71.253478,
            -34.993035
          ],
          [
            -71.253889,
            -34.992902
          ],
          [
            -71.254292,
            -34.992771
          ],
          [
            -71.254651,
            -34.992655
          ],
          [
            -71.254706,
            -34.992633
          ],
          [
            -71.254758,
            -34.992601
          ],
          [
            -71.254994,
            -34.992928
          ],
          [
            -71.255455,
            -34.993565
          ],
          [
            -71.255664,
            -34.993853
          ],
          [
            -71.255782,
            -34.994017
          ],
          [
            -71.256181,
            -34.993842
          ],
          [
            -71.256517,
            -34.993671
          ]
        ]
      },
      "properties": {
        "id": "expansion-curico-01",
        "phase": 1,
        "sector": "Sector Mataquito",
        "target_sector": "Sector Mataquito",
        "main_street": "Avenida Circunvalación Doctor Osorio",
        "streets": [
          "Avenida Circunvalación Doctor Osorio",
          "Avenida Trapiche",
          "Pasaje Las Zinnia"
        ],
        "corridor_type": "Eje Estructurante",
        "expansion_type": "trunk_extension",
        "depends_on": [],
        "urban_context": "urban",
        "environment_label": "Expansión Urbana",
        "length_m": 903.5,
        "length_km": 0.9,
        "score": 92.0,
        "structural_axis_score": 9.6,
        "structural_ratio": 0.91,
        "physical_width_status": "UNVERIFIED_IN_OSM",
        "score_breakdown": {
          "coverage": 30.4,
          "pois": 25.0,
          "continuity": 17.0,
          "structural_axis": 9.6,
          "efficiency": 10.0
        },
        "marginal_gain": {
          "urban_access_nodes": 217,
          "pois": 24
        },
        "cumulative_totals": {
          "length_km": 0.9,
          "urban_access_nodes": 217,
          "pois": 24
        },
        "disclaimer": "Propuesta analítica de expansión de red basada en conectividad vial y equipamientos de OpenStreetMap. No evalúa ancho físico ni garantiza factibilidad constructiva sin estudio de ingeniería de tránsito."
      }
    },
    {
      "type": "Feature",
      "geometry": {
        "type": "LineString",
        "coordinates": [
          [
            -71.192048,
            -34.945377
          ],
          [
            -71.192391,
            -34.945336
          ],
          [
            -71.192686,
            -34.945301
          ],
          [
            -71.193088,
            -34.945253
          ],
          [
            -71.193163,
            -34.945245
          ],
          [
            -71.194211,
            -34.94512
          ],
          [
            -71.194284,
            -34.945112
          ],
          [
            -71.194644,
            -34.945069
          ],
          [
            -71.194877,
            -34.945042
          ],
          [
            -71.194963,
            -34.945031
          ],
          [
            -71.195392,
            -34.94498
          ],
          [
            -71.195476,
            -34.944971
          ],
          [
            -71.196692,
            -34.944827
          ],
          [
            -71.196806,
            -34.944812
          ],
          [
            -71.197747,
            -34.944689
          ],
          [
            -71.198124,
            -34.94464
          ],
          [
            -71.198691,
            -34.944566
          ],
          [
            -71.198847,
            -34.944545
          ],
          [
            -71.199,
            -34.944525
          ],
          [
            -71.200027,
            -34.944389
          ],
          [
            -71.201075,
            -34.944248
          ],
          [
            -71.201223,
            -34.944229
          ],
          [
            -71.201572,
            -34.944184
          ],
          [
            -71.20213,
            -34.944117
          ],
          [
            -71.203266,
            -34.943988
          ],
          [
            -71.203354,
            -34.943978
          ],
          [
            -71.203722,
            -34.943903
          ],
          [
            -71.20377,
            -34.943866
          ],
          [
            -71.203812,
            -34.943824
          ],
          [
            -71.203846,
            -34.943777
          ],
          [
            -71.203871,
            -34.943727
          ],
          [
            -71.203885,
            -34.943683
          ],
          [
            -71.203892,
            -34.943637
          ],
          [
            -71.203892,
            -34.943591
          ],
          [
            -71.203746,
            -34.943408
          ],
          [
            -71.203071,
            -34.942567
          ],
          [
            -71.202839,
            -34.942268
          ],
          [
            -71.202788,
            -34.942203
          ],
          [
            -71.202831,
            -34.94217
          ],
          [
            -71.202888,
            -34.942131
          ],
          [
            -71.203048,
            -34.942014
          ],
          [
            -71.203127,
            -34.941957
          ],
          [
            -71.203328,
            -34.941812
          ],
          [
            -71.203407,
            -34.941755
          ],
          [
            -71.203644,
            -34.941583
          ],
          [
            -71.203988,
            -34.941334
          ],
          [
            -71.204314,
            -34.941097
          ],
          [
            -71.204369,
            -34.941057
          ],
          [
            -71.204638,
            -34.940863
          ]
        ]
      },
      "properties": {
        "id": "expansion-curico-02",
        "phase": 2,
        "sector": "Sector Callejón San José",
        "target_sector": "Sector Callejón San José",
        "main_street": "Avenida Rauquén",
        "streets": [
          "Avenida Rauquén",
          "Avenida Arturo Prat",
          "Calle Las Perdices"
        ],
        "corridor_type": "Eje Estructurante",
        "expansion_type": "trunk_extension",
        "depends_on": [],
        "urban_context": "urban",
        "environment_label": "Expansión Urbana",
        "length_m": 1525.5,
        "length_km": 1.53,
        "score": 91.1,
        "structural_axis_score": 9.2,
        "structural_ratio": 0.85,
        "physical_width_status": "UNVERIFIED_IN_OSM",
        "score_breakdown": {
          "coverage": 31.6,
          "pois": 25.0,
          "continuity": 17.0,
          "structural_axis": 9.2,
          "efficiency": 8.2
        },
        "marginal_gain": {
          "urban_access_nodes": 226,
          "pois": 12
        },
        "cumulative_totals": {
          "length_km": 2.43,
          "urban_access_nodes": 443,
          "pois": 36
        },
        "disclaimer": "Propuesta analítica de expansión de red basada en conectividad vial y equipamientos de OpenStreetMap. No evalúa ancho físico ni garantiza factibilidad constructiva sin estudio de ingeniería de tránsito."
      }
    },
    {
      "type": "Feature",
      "geometry": {
        "type": "LineString",
        "coordinates": [
          [
            -71.216494,
            -34.983407
          ],
          [
            -71.216454,
            -34.983382
          ],
          [
            -71.216539,
            -34.98339
          ],
          [
            -71.217775,
            -34.983485
          ],
          [
            -71.217821,
            -34.983488
          ],
          [
            -71.217837,
            -34.983489
          ],
          [
            -71.217901,
            -34.983494
          ],
          [
            -71.218021,
            -34.983508
          ],
          [
            -71.218308,
            -34.98354
          ],
          [
            -71.218639,
            -34.983573
          ],
          [
            -71.218806,
            -34.983589
          ],
          [
            -71.219184,
            -34.983626
          ],
          [
            -71.219236,
            -34.983632
          ],
          [
            -71.219322,
            -34.98364
          ],
          [
            -71.219333,
            -34.983641
          ],
          [
            -71.219875,
            -34.983696
          ],
          [
            -71.219947,
            -34.983703
          ],
          [
            -71.220261,
            -34.983743
          ],
          [
            -71.220754,
            -34.983839
          ],
          [
            -71.221165,
            -34.983947
          ],
          [
            -71.221478,
            -34.984038
          ],
          [
            -71.222201,
            -34.984289
          ],
          [
            -71.222806,
            -34.984499
          ],
          [
            -71.222951,
            -34.984549
          ],
          [
            -71.22354,
            -34.984754
          ],
          [
            -71.224064,
            -34.984936
          ],
          [
            -71.224349,
            -34.985035
          ],
          [
            -71.22476,
            -34.985178
          ],
          [
            -71.224806,
            -34.985193
          ],
          [
            -71.225426,
            -34.985399
          ],
          [
            -71.225745,
            -34.985505
          ],
          [
            -71.22604,
            -34.985603
          ]
        ]
      },
      "properties": {
        "id": "expansion-curico-03",
        "phase": 3,
        "sector": "Sector Nazareth / SalcoBrand",
        "target_sector": "Sector Nazareth / SalcoBrand",
        "main_street": "Avenida España",
        "streets": [
          "Avenida España"
        ],
        "corridor_type": "Eje Estructurante",
        "expansion_type": "trunk_extension",
        "depends_on": [],
        "urban_context": "urban",
        "environment_label": "Expansión Urbana",
        "length_m": 920.1,
        "length_km": 0.92,
        "score": 77.8,
        "structural_axis_score": 10.0,
        "structural_ratio": 1.0,
        "physical_width_status": "UNVERIFIED_IN_OSM",
        "score_breakdown": {
          "coverage": 18.1,
          "pois": 25.0,
          "continuity": 17.0,
          "structural_axis": 10.0,
          "efficiency": 7.8
        },
        "marginal_gain": {
          "urban_access_nodes": 129,
          "pois": 8
        },
        "cumulative_totals": {
          "length_km": 3.35,
          "urban_access_nodes": 572,
          "pois": 44
        },
        "disclaimer": "Propuesta analítica de expansión de red basada en conectividad vial y equipamientos de OpenStreetMap. No evalúa ancho físico ni garantiza factibilidad constructiva sin estudio de ingeniería de tránsito."
      }
    },
    {
      "type": "Feature",
      "geometry": {
        "type": "LineString",
        "coordinates": [
          [
            -71.230749,
            -34.970448
          ],
          [
            -71.230712,
            -34.970284
          ],
          [
            -71.230694,
            -34.970184
          ],
          [
            -71.230675,
            -34.970052
          ],
          [
            -71.23066,
            -34.969918
          ],
          [
            -71.23064,
            -34.969828
          ],
          [
            -71.230588,
            -34.969586
          ],
          [
            -71.230553,
            -34.969446
          ],
          [
            -71.23037,
            -34.968654
          ],
          [
            -71.230274,
            -34.968234
          ],
          [
            -71.230208,
            -34.967948
          ],
          [
            -71.230092,
            -34.967425
          ],
          [
            -71.230074,
            -34.96735
          ],
          [
            -71.229962,
            -34.966902
          ],
          [
            -71.229804,
            -34.966234
          ],
          [
            -71.229737,
            -34.965958
          ],
          [
            -71.22953,
            -34.96509
          ],
          [
            -71.229747,
            -34.965045
          ],
          [
            -71.229813,
            -34.965038
          ],
          [
            -71.229863,
            -34.965037
          ],
          [
            -71.229926,
            -34.965053
          ],
          [
            -71.229987,
            -34.965067
          ],
          [
            -71.230071,
            -34.965067
          ],
          [
            -71.23078,
            -34.964963
          ],
          [
            -71.231094,
            -34.964915
          ],
          [
            -71.231372,
            -34.964862
          ],
          [
            -71.231674,
            -34.964803
          ]
        ]
      },
      "properties": {
        "id": "expansion-curico-04",
        "phase": 4,
        "sector": "Sector Nueva América / Colegio Cristiano de Curicó",
        "target_sector": "Sector Nueva América / Colegio Cristiano de Curicó",
        "main_street": "Avenida Juan Luis Diez",
        "streets": [
          "Avenida Juan Luis Diez",
          "Glaciar Grey"
        ],
        "corridor_type": "Eje Estructurante",
        "expansion_type": "trunk_extension",
        "depends_on": [],
        "urban_context": "urban",
        "environment_label": "Expansión Urbana",
        "length_m": 805.6,
        "length_km": 0.81,
        "score": 72.3,
        "structural_axis_score": 8.8,
        "structural_ratio": 0.75,
        "physical_width_status": "UNVERIFIED_IN_OSM",
        "score_breakdown": {
          "coverage": 20.9,
          "pois": 15.6,
          "continuity": 17.0,
          "structural_axis": 8.8,
          "efficiency": 10.0
        },
        "marginal_gain": {
          "urban_access_nodes": 149,
          "pois": 5
        },
        "cumulative_totals": {
          "length_km": 4.16,
          "urban_access_nodes": 721,
          "pois": 49
        },
        "disclaimer": "Propuesta analítica de expansión de red basada en conectividad vial y equipamientos de OpenStreetMap. No evalúa ancho físico ni garantiza factibilidad constructiva sin estudio de ingeniería de tránsito."
      }
    },
    {
      "type": "Feature",
      "geometry": {
        "type": "LineString",
        "coordinates": [
          [
            -71.254508,
            -34.954677
          ],
          [
            -71.254555,
            -34.954691
          ],
          [
            -71.254193,
            -34.955289
          ],
          [
            -71.254144,
            -34.955376
          ],
          [
            -71.253988,
            -34.955635
          ],
          [
            -71.252897,
            -34.957472
          ],
          [
            -71.252833,
            -34.957581
          ],
          [
            -71.251897,
            -34.959148
          ],
          [
            -71.251777,
            -34.959347
          ],
          [
            -71.251497,
            -34.959811
          ],
          [
            -71.251188,
            -34.960311
          ],
          [
            -71.2511,
            -34.960457
          ],
          [
            -71.251039,
            -34.960534
          ],
          [
            -71.250982,
            -34.960612
          ],
          [
            -71.250918,
            -34.96071
          ],
          [
            -71.250859,
            -34.960809
          ],
          [
            -71.250777,
            -34.960947
          ],
          [
            -71.250589,
            -34.961257
          ],
          [
            -71.250552,
            -34.961323
          ],
          [
            -71.250533,
            -34.961315
          ],
          [
            -71.249278,
            -34.960796
          ],
          [
            -71.249241,
            -34.960783
          ],
          [
            -71.249204,
            -34.960774
          ],
          [
            -71.249159,
            -34.960766
          ],
          [
            -71.249113,
            -34.960763
          ],
          [
            -71.248915,
            -34.960756
          ],
          [
            -71.248909,
            -34.960826
          ],
          [
            -71.248881,
            -34.961135
          ],
          [
            -71.248877,
            -34.961184
          ],
          [
            -71.248848,
            -34.961511
          ],
          [
            -71.248843,
            -34.961559
          ],
          [
            -71.248816,
            -34.961867
          ],
          [
            -71.24881,
            -34.961926
          ],
          [
            -71.248787,
            -34.962189
          ]
        ]
      },
      "properties": {
        "id": "expansion-curico-05",
        "phase": 5,
        "sector": "Sector Ruta J-630",
        "target_sector": "Sector Ruta J-630",
        "main_street": "Ruta J-60",
        "streets": [
          "Ruta J-60",
          "Las Vertientes",
          "Los Lagos"
        ],
        "corridor_type": "Directo",
        "expansion_type": "branch",
        "depends_on": [],
        "urban_context": "urban",
        "environment_label": "Expansión Urbana",
        "length_m": 1150.9,
        "length_km": 1.15,
        "score": 68.9,
        "structural_axis_score": 8.6,
        "structural_ratio": 0.71,
        "physical_width_status": "UNVERIFIED_IN_OSM",
        "score_breakdown": {
          "coverage": 31.6,
          "pois": 3.1,
          "continuity": 15.5,
          "structural_axis": 8.6,
          "efficiency": 10.0
        },
        "marginal_gain": {
          "urban_access_nodes": 226,
          "pois": 1
        },
        "cumulative_totals": {
          "length_km": 5.31,
          "urban_access_nodes": 947,
          "pois": 50
        },
        "disclaimer": "Propuesta analítica de expansión de red basada en conectividad vial y equipamientos de OpenStreetMap. No evalúa ancho físico ni garantiza factibilidad constructiva sin estudio de ingeniería de tránsito."
      }
    },
    {
      "type": "Feature",
      "geometry": {
        "type": "LineString",
        "coordinates": [
          [
            -71.203407,
            -34.941755
          ],
          [
            -71.203328,
            -34.941812
          ],
          [
            -71.203127,
            -34.941957
          ],
          [
            -71.203048,
            -34.942014
          ],
          [
            -71.202888,
            -34.942131
          ],
          [
            -71.202831,
            -34.94217
          ],
          [
            -71.202788,
            -34.942203
          ],
          [
            -71.202687,
            -34.942078
          ],
          [
            -71.202577,
            -34.941941
          ],
          [
            -71.202317,
            -34.941615
          ],
          [
            -71.201936,
            -34.941139
          ],
          [
            -71.200956,
            -34.939903
          ],
          [
            -71.200875,
            -34.939804
          ],
          [
            -71.200196,
            -34.938954
          ],
          [
            -71.200158,
            -34.938907
          ],
          [
            -71.199461,
            -34.938029
          ],
          [
            -71.199428,
            -34.937988
          ],
          [
            -71.19916,
            -34.937652
          ],
          [
            -71.19913,
            -34.937613
          ],
          [
            -71.199091,
            -34.937566
          ],
          [
            -71.199042,
            -34.937504
          ],
          [
            -71.198994,
            -34.937444
          ],
          [
            -71.198716,
            -34.937095
          ],
          [
            -71.198469,
            -34.936785
          ],
          [
            -71.197859,
            -34.936019
          ],
          [
            -71.197815,
            -34.935964
          ],
          [
            -71.197175,
            -34.935161
          ],
          [
            -71.197125,
            -34.935098
          ],
          [
            -71.19674,
            -34.934615
          ],
          [
            -71.196336,
            -34.934108
          ],
          [
            -71.195462,
            -34.933012
          ],
          [
            -71.195501,
            -34.932997
          ],
          [
            -71.195543,
            -34.932981
          ],
          [
            -71.196506,
            -34.93261
          ],
          [
            -71.197099,
            -34.932353
          ],
          [
            -71.197231,
            -34.932268
          ],
          [
            -71.197253,
            -34.932282
          ],
          [
            -71.197278,
            -34.932294
          ],
          [
            -71.197314,
            -34.932303
          ],
          [
            -71.197351,
            -34.932306
          ],
          [
            -71.197671,
            -34.932314
          ],
          [
            -71.19769,
            -34.932282
          ]
        ]
      },
      "properties": {
        "id": "expansion-curico-06",
        "phase": 6,
        "sector": "Sector Callejón San José / Escuela María Olga Figueroa Leyton",
        "target_sector": "Sector Callejón San José / Escuela María Olga Figueroa Leyton",
        "main_street": "Calle Las Perdices",
        "streets": [
          "Calle Las Perdices",
          "Avenida Arturo Prat",
          "Camino Vecinal",
          "Camino Principal"
        ],
        "corridor_type": "Directo",
        "expansion_type": "continuation",
        "depends_on": [
          "expansion-curico-02"
        ],
        "urban_context": "urban",
        "environment_label": "Expansión Urbana",
        "length_m": 1522.9,
        "length_km": 1.52,
        "score": 68.4,
        "structural_axis_score": 9.8,
        "structural_ratio": 0.95,
        "physical_width_status": "UNVERIFIED_IN_OSM",
        "score_breakdown": {
          "coverage": 21.0,
          "pois": 15.6,
          "continuity": 16.5,
          "structural_axis": 9.8,
          "efficiency": 5.5
        },
        "marginal_gain": {
          "urban_access_nodes": 150,
          "pois": 5
        },
        "cumulative_totals": {
          "length_km": 6.83,
          "urban_access_nodes": 1097,
          "pois": 55
        },
        "disclaimer": "Propuesta analítica de expansión de red basada en conectividad vial y equipamientos de OpenStreetMap. No evalúa ancho físico ni garantiza factibilidad constructiva sin estudio de ingeniería de tránsito."
      }
    }
  ]
}