{
  "type": "FeatureCollection",
  "name": "Rutas_Sugeridas_Curico_Algoritmicas",
  "metadata": {
    "city": "curico",
    "is_demo": false,
    "status": "ALGORITHMIC_RECOMMENDED",
    "total_routes": 5,
    "generated_at": "2026-09-14T16:45:52.851503+00:00"
  },
  "features": [
    {
      "type": "Feature",
      "id": "route-curico-01",
      "properties": {
        "id": "route-curico-01",
        "name": "Ruta Norte: Rauquén - Plaza de Armas",
        "description": "Conexión desde el sector habitacional Rauquén / Bombero Garrido hacia el centro cívico.",
        "origin_name": "Sector Rauquén (Av. Rauquén)",
        "dest_name": "Plaza de Armas Curicó",
        "is_demo": false,
        "status": "ALGORITHMIC_RECOMMENDED",
        "category": "Corredor ciclista recomendado",
        "distance_km": 4.39,
        "distance_m": 4385.0,
        "cycling_infra_km": 2.32,
        "cycling_infra_pct": 52.9,
        "cost_score": 4236.5,
        "shortest_distance_km": 4.2,
        "shortest_cycling_infra_pct": 20.0,
        "distance_diff_km": 0.19,
        "length_diff_pct": 4.4,
        "cycling_gain_pct": 32.9,
        "is_same_path": false,
        "streets": [
          "Pasaje 1",
          "Caen",
          "El Peumo",
          "El Espino",
          "Pasaje El Sauce",
          "El Lingue",
          "El Temu",
          "María Subiabre Luco"
        ],
        "source": "Motor de routing A* determinista CicloConecta sobre OpenStreetMap"
      },
      "geometry": {
        "type": "LineString",
        "coordinates": [
          [
            -71.218662,
            -34.961926
          ],
          [
            -71.218931,
            -34.962759
          ],
          [
            -71.218949,
            -34.962817
          ],
          [
            -71.218557,
            -34.962904
          ],
          [
            -71.218298,
            -34.962961
          ],
          [
            -71.218153,
            -34.962993
          ],
          [
            -71.217704,
            -34.963091
          ],
          [
            -71.21739,
            -34.96316
          ],
          [
            -71.217524,
            -34.96356
          ],
          [
            -71.217006,
            -34.963676
          ],
          [
            -71.217308,
            -34.964635
          ],
          [
            -71.216959,
            -34.964713
          ],
          [
            -71.217088,
            -34.965205
          ],
          [
            -71.217176,
            -34.965888
          ],
          [
            -71.217214,
            -34.966167
          ],
          [
            -71.217224,
            -34.966214
          ],
          [
            -71.217232,
            -34.96624
          ],
          [
            -71.217248,
            -34.966264
          ],
          [
            -71.217265,
            -34.966279
          ],
          [
            -71.217286,
            -34.966291
          ],
          [
            -71.217659,
            -34.967244
          ],
          [
            -71.2174,
            -34.96731
          ],
          [
            -71.217383,
            -34.967316
          ],
          [
            -71.217368,
            -34.967325
          ],
          [
            -71.217356,
            -34.967337
          ],
          [
            -71.217347,
            -34.967352
          ],
          [
            -71.217343,
            -34.967369
          ],
          [
            -71.217345,
            -34.967387
          ],
          [
            -71.217515,
            -34.968073
          ],
          [
            -71.217718,
            -34.96803
          ],
          [
            -71.217977,
            -34.969086
          ],
          [
            -71.217995,
            -34.969162
          ],
          [
            -71.218165,
            -34.96993
          ],
          [
            -71.218166,
            -34.970098
          ],
          [
            -71.218118,
            -34.970401
          ],
          [
            -71.218232,
            -34.970789
          ],
          [
            -71.218418,
            -34.971427
          ],
          [
            -71.218434,
            -34.971485
          ],
          [
            -71.218439,
            -34.971501
          ],
          [
            -71.218453,
            -34.971554
          ],
          [
            -71.218483,
            -34.971669
          ],
          [
            -71.218502,
            -34.971736
          ],
          [
            -71.218518,
            -34.971801
          ],
          [
            -71.218615,
            -34.972111
          ],
          [
            -71.218652,
            -34.97221
          ],
          [
            -71.218691,
            -34.972286
          ],
          [
            -71.218739,
            -34.972351
          ],
          [
            -71.218793,
            -34.972413
          ],
          [
            -71.218852,
            -34.972471
          ],
          [
            -71.218934,
            -34.972539
          ],
          [
            -71.219024,
            -34.9726
          ],
          [
            -71.219121,
            -34.972654
          ],
          [
            -71.219816,
            -34.973034
          ],
          [
            -71.219889,
            -34.973079
          ],
          [
            -71.219957,
            -34.973129
          ],
          [
            -71.220011,
            -34.973175
          ],
          [
            -71.22006,
            -34.973224
          ],
          [
            -71.220252,
            -34.97345
          ],
          [
            -71.220915,
            -34.974379
          ],
          [
            -71.2211,
            -34.974619
          ],
          [
            -71.221176,
            -34.974705
          ],
          [
            -71.221257,
            -34.974783
          ],
          [
            -71.221318,
            -34.974832
          ],
          [
            -71.221382,
            -34.974877
          ],
          [
            -71.221479,
            -34.974936
          ],
          [
            -71.22167,
            -34.975032
          ],
          [
            -71.221769,
            -34.975088
          ],
          [
            -71.221865,
            -34.975143
          ],
          [
            -71.22191,
            -34.975175
          ],
          [
            -71.222057,
            -34.975148
          ],
          [
            -71.222246,
            -34.975121
          ],
          [
            -71.223267,
            -34.974953
          ],
          [
            -71.223867,
            -34.974857
          ],
          [
            -71.224418,
            -34.974769
          ],
          [
            -71.224904,
            -34.974691
          ],
          [
            -71.225555,
            -34.974587
          ],
          [
            -71.225933,
            -34.974522
          ],
          [
            -71.226074,
            -34.974493
          ],
          [
            -71.226265,
            -34.974474
          ],
          [
            -71.226464,
            -34.974462
          ],
          [
            -71.226613,
            -34.974475
          ],
          [
            -71.226699,
            -34.97448
          ],
          [
            -71.226943,
            -34.974516
          ],
          [
            -71.227145,
            -34.974564
          ],
          [
            -71.227185,
            -34.974579
          ],
          [
            -71.227412,
            -34.974668
          ],
          [
            -71.22764,
            -34.974781
          ],
          [
            -71.227932,
            -34.974933
          ],
          [
            -71.22824,
            -34.975131
          ],
          [
            -71.228343,
            -34.975195
          ],
          [
            -71.228438,
            -34.975265
          ],
          [
            -71.228555,
            -34.975351
          ],
          [
            -71.228521,
            -34.975425
          ],
          [
            -71.228452,
            -34.975499
          ],
          [
            -71.228352,
            -34.975534
          ],
          [
            -71.228431,
            -34.975554
          ],
          [
            -71.228509,
            -34.975578
          ],
          [
            -71.228666,
            -34.975624
          ],
          [
            -71.228819,
            -34.975678
          ],
          [
            -71.228946,
            -34.975731
          ],
          [
            -71.229069,
            -34.97579
          ],
          [
            -71.229188,
            -34.975855
          ],
          [
            -71.229302,
            -34.975926
          ],
          [
            -71.229411,
            -34.976002
          ],
          [
            -71.230936,
            -34.977036
          ],
          [
            -71.231483,
            -34.977402
          ],
          [
            -71.232547,
            -34.978115
          ],
          [
            -71.2327,
            -34.978378
          ],
          [
            -71.232736,
            -34.978447
          ],
          [
            -71.233036,
            -34.979522
          ],
          [
            -71.233182,
            -34.97999
          ],
          [
            -71.233326,
            -34.980475
          ],
          [
            -71.233508,
            -34.981024
          ],
          [
            -71.233589,
            -34.981009
          ],
          [
            -71.233715,
            -34.980986
          ],
          [
            -71.233909,
            -34.981643
          ],
          [
            -71.234066,
            -34.982195
          ],
          [
            -71.234151,
            -34.982488
          ],
          [
            -71.234179,
            -34.982671
          ],
          [
            -71.234188,
            -34.982803
          ],
          [
            -71.23418,
            -34.982934
          ],
          [
            -71.234169,
            -34.983092
          ],
          [
            -71.234158,
            -34.983207
          ],
          [
            -71.234123,
            -34.983545
          ],
          [
            -71.234036,
            -34.984308
          ],
          [
            -71.234031,
            -34.984345
          ],
          [
            -71.234374,
            -34.98435
          ],
          [
            -71.234399,
            -34.98435
          ],
          [
            -71.234463,
            -34.984351
          ],
          [
            -71.23452,
            -34.984356
          ],
          [
            -71.234628,
            -34.984366
          ],
          [
            -71.235046,
            -34.984404
          ],
          [
            -71.235955,
            -34.984487
          ],
          [
            -71.235994,
            -34.98449
          ],
          [
            -71.236046,
            -34.984495
          ],
          [
            -71.236133,
            -34.984503
          ],
          [
            -71.23731,
            -34.98461
          ],
          [
            -71.237357,
            -34.984614
          ],
          [
            -71.237398,
            -34.984618
          ],
          [
            -71.237455,
            -34.984623
          ],
          [
            -71.237799,
            -34.984654
          ],
          [
            -71.238646,
            -34.984731
          ],
          [
            -71.23869,
            -34.984735
          ],
          [
            -71.238778,
            -34.984743
          ],
          [
            -71.238859,
            -34.98475
          ],
          [
            -71.239162,
            -34.984782
          ],
          [
            -71.239564,
            -34.98481
          ],
          [
            -71.239751,
            -34.984821
          ],
          [
            -71.239885,
            -34.984979
          ],
          [
            -71.240085,
            -34.985191
          ],
          [
            -71.240026,
            -34.985614
          ],
          [
            -71.240013,
            -34.985706
          ],
          [
            -71.239764,
            -34.985858
          ]
        ]
      }
    },
    {
      "type": "Feature",
      "id": "route-curico-02",
      "properties": {
        "id": "route-curico-02",
        "name": "Ruta Oriente: Zapallar / El Boldo - Plaza de Armas",
        "description": "Corredor oriente conectando barrios residenciales de Zapallar y El Boldo hacia el centro.",
        "origin_name": "El Boldo / Zapallar",
        "dest_name": "Plaza de Armas Curicó",
        "is_demo": false,
        "status": "ALGORITHMIC_RECOMMENDED",
        "category": "Corredor ciclista recomendado",
        "distance_km": 4.23,
        "distance_m": 4229.5,
        "cycling_infra_km": 3.0,
        "cycling_infra_pct": 70.8,
        "cost_score": 4083.5,
        "shortest_distance_km": 2.97,
        "shortest_cycling_infra_pct": 14.7,
        "distance_diff_km": 1.26,
        "length_diff_pct": 42.6,
        "cycling_gain_pct": 56.1,
        "is_same_path": false,
        "streets": [
          "Calle sin nombre",
          "Caletera Ruta 5",
          "Callejón El Pino",
          "Caletera Ruta 5",
          "Calle sin nombre",
          "Las Heras",
          "Cardenal Caro",
          "Buen Pastor"
        ],
        "source": "Motor de routing A* determinista CicloConecta sobre OpenStreetMap"
      },
      "geometry": {
        "type": "LineString",
        "coordinates": [
          [
            -71.212255,
            -34.981535
          ],
          [
            -71.212341,
            -34.981505
          ],
          [
            -71.212397,
            -34.98148
          ],
          [
            -71.213682,
            -34.982328
          ],
          [
            -71.213919,
            -34.982476
          ],
          [
            -71.214029,
            -34.982539
          ],
          [
            -71.214113,
            -34.982586
          ],
          [
            -71.214181,
            -34.98262
          ],
          [
            -71.214296,
            -34.982668
          ],
          [
            -71.214385,
            -34.982714
          ],
          [
            -71.214515,
            -34.982791
          ],
          [
            -71.214861,
            -34.983036
          ],
          [
            -71.21486,
            -34.983071
          ],
          [
            -71.214851,
            -34.983106
          ],
          [
            -71.214833,
            -34.983139
          ],
          [
            -71.214809,
            -34.983169
          ],
          [
            -71.214874,
            -34.983165
          ],
          [
            -71.214939,
            -34.983165
          ],
          [
            -71.215017,
            -34.983173
          ],
          [
            -71.215094,
            -34.98319
          ],
          [
            -71.215833,
            -34.983686
          ],
          [
            -71.215941,
            -34.983757
          ],
          [
            -71.215981,
            -34.983786
          ],
          [
            -71.216127,
            -34.983624
          ],
          [
            -71.216229,
            -34.983541
          ],
          [
            -71.21629,
            -34.983509
          ],
          [
            -71.216408,
            -34.983517
          ],
          [
            -71.216516,
            -34.98346
          ],
          [
            -71.216487,
            -34.983503
          ],
          [
            -71.216505,
            -34.983568
          ],
          [
            -71.216547,
            -34.983614
          ],
          [
            -71.217353,
            -34.984157
          ],
          [
            -71.217486,
            -34.984268
          ],
          [
            -71.217626,
            -34.984381
          ],
          [
            -71.217839,
            -34.984564
          ],
          [
            -71.218103,
            -34.984764
          ],
          [
            -71.218748,
            -34.985194
          ],
          [
            -71.218929,
            -34.985317
          ],
          [
            -71.21901,
            -34.985381
          ],
          [
            -71.219079,
            -34.985456
          ],
          [
            -71.219152,
            -34.98552
          ],
          [
            -71.220457,
            -34.986375
          ],
          [
            -71.224673,
            -34.989141
          ],
          [
            -71.228249,
            -34.991542
          ],
          [
            -71.228378,
            -34.991634
          ],
          [
            -71.229027,
            -34.992058
          ],
          [
            -71.22993,
            -34.992649
          ],
          [
            -71.230413,
            -34.992955
          ],
          [
            -71.230684,
            -34.993122
          ],
          [
            -71.231078,
            -34.993351
          ],
          [
            -71.231529,
            -34.993605
          ],
          [
            -71.23166,
            -34.993645
          ],
          [
            -71.231769,
            -34.993651
          ],
          [
            -71.231938,
            -34.993624
          ],
          [
            -71.231879,
            -34.992918
          ],
          [
            -71.231804,
            -34.992014
          ],
          [
            -71.231771,
            -34.991617
          ],
          [
            -71.231768,
            -34.990814
          ],
          [
            -71.231762,
            -34.990297
          ],
          [
            -71.231756,
            -34.990203
          ],
          [
            -71.23307,
            -34.990284
          ],
          [
            -71.233201,
            -34.990265
          ],
          [
            -71.233297,
            -34.990258
          ],
          [
            -71.233355,
            -34.990254
          ],
          [
            -71.233512,
            -34.990267
          ],
          [
            -71.233684,
            -34.99028
          ],
          [
            -71.233737,
            -34.990284
          ],
          [
            -71.233863,
            -34.989183
          ],
          [
            -71.233821,
            -34.989139
          ],
          [
            -71.233786,
            -34.989103
          ],
          [
            -71.233773,
            -34.989068
          ],
          [
            -71.233781,
            -34.989014
          ],
          [
            -71.233789,
            -34.988933
          ],
          [
            -71.233917,
            -34.987711
          ],
          [
            -71.234023,
            -34.986698
          ],
          [
            -71.234038,
            -34.986594
          ],
          [
            -71.234135,
            -34.985671
          ],
          [
            -71.234136,
            -34.985635
          ],
          [
            -71.234138,
            -34.9856
          ],
          [
            -71.234141,
            -34.985554
          ],
          [
            -71.234142,
            -34.985532
          ],
          [
            -71.234156,
            -34.985495
          ],
          [
            -71.234157,
            -34.985463
          ],
          [
            -71.234157,
            -34.985429
          ],
          [
            -71.234162,
            -34.985385
          ],
          [
            -71.234161,
            -34.985357
          ],
          [
            -71.234168,
            -34.985325
          ],
          [
            -71.234176,
            -34.985296
          ],
          [
            -71.234184,
            -34.985268
          ],
          [
            -71.234196,
            -34.985256
          ],
          [
            -71.234223,
            -34.98525
          ],
          [
            -71.234236,
            -34.985236
          ],
          [
            -71.234246,
            -34.985206
          ],
          [
            -71.234246,
            -34.985177
          ],
          [
            -71.234238,
            -34.985162
          ],
          [
            -71.234216,
            -34.985149
          ],
          [
            -71.234206,
            -34.985136
          ],
          [
            -71.234204,
            -34.98511
          ],
          [
            -71.234241,
            -34.984769
          ],
          [
            -71.23423,
            -34.984745
          ],
          [
            -71.234202,
            -34.984727
          ],
          [
            -71.234142,
            -34.98471
          ],
          [
            -71.23413,
            -34.98469
          ],
          [
            -71.234122,
            -34.984658
          ],
          [
            -71.234126,
            -34.98458
          ],
          [
            -71.234126,
            -34.984559
          ],
          [
            -71.234114,
            -34.984533
          ],
          [
            -71.234037,
            -34.984448
          ],
          [
            -71.234029,
            -34.984423
          ],
          [
            -71.234027,
            -34.9844
          ],
          [
            -71.234031,
            -34.984345
          ],
          [
            -71.234374,
            -34.98435
          ],
          [
            -71.234399,
            -34.98435
          ],
          [
            -71.234463,
            -34.984351
          ],
          [
            -71.23452,
            -34.984356
          ],
          [
            -71.234628,
            -34.984366
          ],
          [
            -71.235046,
            -34.984404
          ],
          [
            -71.235955,
            -34.984487
          ],
          [
            -71.235994,
            -34.98449
          ],
          [
            -71.236046,
            -34.984495
          ],
          [
            -71.236133,
            -34.984503
          ],
          [
            -71.23731,
            -34.98461
          ],
          [
            -71.237357,
            -34.984614
          ],
          [
            -71.237398,
            -34.984618
          ],
          [
            -71.237455,
            -34.984623
          ],
          [
            -71.237799,
            -34.984654
          ],
          [
            -71.238646,
            -34.984731
          ],
          [
            -71.23869,
            -34.984735
          ],
          [
            -71.238778,
            -34.984743
          ],
          [
            -71.238859,
            -34.98475
          ],
          [
            -71.239162,
            -34.984782
          ],
          [
            -71.239564,
            -34.98481
          ],
          [
            -71.239751,
            -34.984821
          ],
          [
            -71.239885,
            -34.984979
          ],
          [
            -71.240085,
            -34.985191
          ],
          [
            -71.240026,
            -34.985614
          ],
          [
            -71.240013,
            -34.985706
          ],
          [
            -71.239764,
            -34.985858
          ]
        ]
      }
    },
    {
      "type": "Feature",
      "id": "route-curico-03",
      "properties": {
        "id": "route-curico-03",
        "name": "Ruta Poniente: Santa Fe / Alessandri - Plaza de Armas",
        "description": "Eje poniente conectando Población Santa Fe y Av. Alessandri con el centro de la ciudad.",
        "origin_name": "Santa Fe / Av. Alessandri",
        "dest_name": "Plaza de Armas Curicó",
        "is_demo": false,
        "status": "ALGORITHMIC_RECOMMENDED",
        "category": "Corredor ciclista recomendado",
        "distance_km": 2.58,
        "distance_m": 2581.9,
        "cycling_infra_km": 0.42,
        "cycling_infra_pct": 16.2,
        "cost_score": 3093.7,
        "shortest_distance_km": 2.42,
        "shortest_cycling_infra_pct": 0.0,
        "distance_diff_km": 0.16,
        "length_diff_pct": 6.7,
        "cycling_gain_pct": 16.2,
        "is_same_path": false,
        "streets": [
          "21 de Mayo",
          "San Agustín",
          "Pasaje Vaticano",
          "Avenida Trapiche",
          "Avenida Lautaro",
          "Calle sin nombre",
          "Avenida Lautaro",
          "Villota"
        ],
        "source": "Motor de routing A* determinista CicloConecta sobre OpenStreetMap"
      },
      "geometry": {
        "type": "LineString",
        "coordinates": [
          [
            -71.257436,
            -34.988565
          ],
          [
            -71.257086,
            -34.988738
          ],
          [
            -71.256648,
            -34.988946
          ],
          [
            -71.25616,
            -34.989181
          ],
          [
            -71.255825,
            -34.989349
          ],
          [
            -71.255689,
            -34.989418
          ],
          [
            -71.25545,
            -34.989543
          ],
          [
            -71.255144,
            -34.9897
          ],
          [
            -71.254054,
            -34.989968
          ],
          [
            -71.253435,
            -34.988959
          ],
          [
            -71.25327,
            -34.988237
          ],
          [
            -71.253155,
            -34.987883
          ],
          [
            -71.252388,
            -34.98799
          ],
          [
            -71.252376,
            -34.987952
          ],
          [
            -71.25236,
            -34.987914
          ],
          [
            -71.252334,
            -34.98787
          ],
          [
            -71.252301,
            -34.98783
          ],
          [
            -71.252264,
            -34.987789
          ],
          [
            -71.252221,
            -34.987751
          ],
          [
            -71.252163,
            -34.98771
          ],
          [
            -71.252133,
            -34.987692
          ],
          [
            -71.2521,
            -34.987675
          ],
          [
            -71.252035,
            -34.987651
          ],
          [
            -71.251966,
            -34.987637
          ],
          [
            -71.251899,
            -34.987631
          ],
          [
            -71.251831,
            -34.987628
          ],
          [
            -71.251749,
            -34.987629
          ],
          [
            -71.251666,
            -34.987634
          ],
          [
            -71.251393,
            -34.987658
          ],
          [
            -71.251274,
            -34.987669
          ],
          [
            -71.250991,
            -34.98769
          ],
          [
            -71.250789,
            -34.987703
          ],
          [
            -71.250517,
            -34.987722
          ],
          [
            -71.249833,
            -34.987763
          ],
          [
            -71.249518,
            -34.987778
          ],
          [
            -71.249259,
            -34.987817
          ],
          [
            -71.249136,
            -34.987831
          ],
          [
            -71.249042,
            -34.987837
          ],
          [
            -71.248954,
            -34.98784
          ],
          [
            -71.248901,
            -34.987842
          ],
          [
            -71.248893,
            -34.987915
          ],
          [
            -71.248805,
            -34.98792
          ],
          [
            -71.247112,
            -34.988013
          ],
          [
            -71.246967,
            -34.988021
          ],
          [
            -71.246316,
            -34.988065
          ],
          [
            -71.245993,
            -34.988096
          ],
          [
            -71.245891,
            -34.988134
          ],
          [
            -71.245736,
            -34.988183
          ],
          [
            -71.245166,
            -34.988354
          ],
          [
            -71.244665,
            -34.988491
          ],
          [
            -71.244609,
            -34.988504
          ],
          [
            -71.244587,
            -34.988412
          ],
          [
            -71.244402,
            -34.988458
          ],
          [
            -71.244077,
            -34.988526
          ],
          [
            -71.243873,
            -34.988568
          ],
          [
            -71.243349,
            -34.988536
          ],
          [
            -71.242507,
            -34.988485
          ],
          [
            -71.242415,
            -34.98848
          ],
          [
            -71.241184,
            -34.988371
          ],
          [
            -71.241136,
            -34.988367
          ],
          [
            -71.24107,
            -34.988361
          ],
          [
            -71.240995,
            -34.988354
          ],
          [
            -71.239752,
            -34.988245
          ],
          [
            -71.239669,
            -34.988237
          ],
          [
            -71.239255,
            -34.988201
          ],
          [
            -71.238399,
            -34.988125
          ],
          [
            -71.238319,
            -34.988118
          ],
          [
            -71.238382,
            -34.987657
          ],
          [
            -71.238456,
            -34.987107
          ],
          [
            -71.238461,
            -34.987072
          ],
          [
            -71.238473,
            -34.986986
          ],
          [
            -71.238478,
            -34.986944
          ],
          [
            -71.238511,
            -34.986703
          ],
          [
            -71.238548,
            -34.986434
          ],
          [
            -71.238612,
            -34.985965
          ],
          [
            -71.238616,
            -34.985933
          ],
          [
            -71.238626,
            -34.985858
          ],
          [
            -71.238634,
            -34.985798
          ],
          [
            -71.238665,
            -34.985569
          ],
          [
            -71.238737,
            -34.985043
          ],
          [
            -71.238989,
            -34.984894
          ],
          [
            -71.239162,
            -34.984782
          ],
          [
            -71.239564,
            -34.98481
          ],
          [
            -71.239751,
            -34.984821
          ],
          [
            -71.239885,
            -34.984979
          ],
          [
            -71.240085,
            -34.985191
          ],
          [
            -71.240026,
            -34.985614
          ],
          [
            -71.240013,
            -34.985706
          ],
          [
            -71.239764,
            -34.985858
          ]
        ]
      }
    },
    {
      "type": "Feature",
      "id": "route-curico-04",
      "properties": {
        "id": "route-curico-04",
        "name": "Circuito Universitario: Los Niches - Plaza de Armas",
        "description": "Conexión sur-oriente desde el sector Los Niches y Campus UTalca hacia el núcleo central.",
        "origin_name": "Sector Los Niches / Av. España",
        "dest_name": "Plaza de Armas Curicó",
        "is_demo": false,
        "status": "ALGORITHMIC_RECOMMENDED",
        "category": "Corredor ciclista recomendado",
        "distance_km": 2.39,
        "distance_m": 2385.7,
        "cycling_infra_km": 1.11,
        "cycling_infra_pct": 46.7,
        "cost_score": 3485.5,
        "shortest_distance_km": 2.3,
        "shortest_cycling_infra_pct": 0.0,
        "distance_diff_km": 0.09,
        "length_diff_pct": 3.7,
        "cycling_gain_pct": 46.7,
        "is_same_path": false,
        "streets": [
          "Calle sin nombre",
          "Avenida Manso de Velasco",
          "Buen Pastor",
          "Calle sin nombre",
          "Merced",
          "Calle sin nombre",
          "Yungay",
          "Calle sin nombre"
        ],
        "source": "Motor de routing A* determinista CicloConecta sobre OpenStreetMap"
      },
      "geometry": {
        "type": "LineString",
        "coordinates": [
          [
            -71.232545,
            -34.998588
          ],
          [
            -71.232693,
            -34.998614
          ],
          [
            -71.232718,
            -34.998616
          ],
          [
            -71.232743,
            -34.998614
          ],
          [
            -71.232767,
            -34.998608
          ],
          [
            -71.232797,
            -34.998595
          ],
          [
            -71.23281,
            -34.998586
          ],
          [
            -71.232821,
            -34.998575
          ],
          [
            -71.232832,
            -34.998554
          ],
          [
            -71.232835,
            -34.998532
          ],
          [
            -71.232829,
            -34.99851
          ],
          [
            -71.232822,
            -34.998373
          ],
          [
            -71.232833,
            -34.998192
          ],
          [
            -71.232941,
            -34.997566
          ],
          [
            -71.232962,
            -34.997407
          ],
          [
            -71.23299,
            -34.997204
          ],
          [
            -71.233064,
            -34.996652
          ],
          [
            -71.232632,
            -34.996614
          ],
          [
            -71.232535,
            -34.996559
          ],
          [
            -71.232496,
            -34.996519
          ],
          [
            -71.232476,
            -34.996478
          ],
          [
            -71.232467,
            -34.996443
          ],
          [
            -71.23247,
            -34.996412
          ],
          [
            -71.232475,
            -34.996375
          ],
          [
            -71.232492,
            -34.996231
          ],
          [
            -71.232517,
            -34.996028
          ],
          [
            -71.232541,
            -34.99584
          ],
          [
            -71.232749,
            -34.994234
          ],
          [
            -71.232814,
            -34.993717
          ],
          [
            -71.232862,
            -34.993322
          ],
          [
            -71.232903,
            -34.99295
          ],
          [
            -71.233057,
            -34.991568
          ],
          [
            -71.233187,
            -34.990391
          ],
          [
            -71.233201,
            -34.990265
          ],
          [
            -71.233297,
            -34.990258
          ],
          [
            -71.233355,
            -34.990254
          ],
          [
            -71.233512,
            -34.990267
          ],
          [
            -71.233684,
            -34.99028
          ],
          [
            -71.233737,
            -34.990284
          ],
          [
            -71.233863,
            -34.989183
          ],
          [
            -71.233821,
            -34.989139
          ],
          [
            -71.233786,
            -34.989103
          ],
          [
            -71.233773,
            -34.989068
          ],
          [
            -71.233781,
            -34.989014
          ],
          [
            -71.233789,
            -34.988933
          ],
          [
            -71.233917,
            -34.987711
          ],
          [
            -71.234023,
            -34.986698
          ],
          [
            -71.234038,
            -34.986594
          ],
          [
            -71.234135,
            -34.985671
          ],
          [
            -71.234136,
            -34.985635
          ],
          [
            -71.234138,
            -34.9856
          ],
          [
            -71.234141,
            -34.985554
          ],
          [
            -71.234142,
            -34.985532
          ],
          [
            -71.234156,
            -34.985495
          ],
          [
            -71.234157,
            -34.985463
          ],
          [
            -71.234157,
            -34.985429
          ],
          [
            -71.234162,
            -34.985385
          ],
          [
            -71.234161,
            -34.985357
          ],
          [
            -71.234168,
            -34.985325
          ],
          [
            -71.234176,
            -34.985296
          ],
          [
            -71.234184,
            -34.985268
          ],
          [
            -71.234196,
            -34.985256
          ],
          [
            -71.234223,
            -34.98525
          ],
          [
            -71.234236,
            -34.985236
          ],
          [
            -71.234246,
            -34.985206
          ],
          [
            -71.234246,
            -34.985177
          ],
          [
            -71.234238,
            -34.985162
          ],
          [
            -71.234216,
            -34.985149
          ],
          [
            -71.234206,
            -34.985136
          ],
          [
            -71.234204,
            -34.98511
          ],
          [
            -71.234241,
            -34.984769
          ],
          [
            -71.23423,
            -34.984745
          ],
          [
            -71.234202,
            -34.984727
          ],
          [
            -71.234142,
            -34.98471
          ],
          [
            -71.23413,
            -34.98469
          ],
          [
            -71.234122,
            -34.984658
          ],
          [
            -71.234126,
            -34.98458
          ],
          [
            -71.234126,
            -34.984559
          ],
          [
            -71.234114,
            -34.984533
          ],
          [
            -71.234037,
            -34.984448
          ],
          [
            -71.234029,
            -34.984423
          ],
          [
            -71.234027,
            -34.9844
          ],
          [
            -71.234031,
            -34.984345
          ],
          [
            -71.234374,
            -34.98435
          ],
          [
            -71.234399,
            -34.98435
          ],
          [
            -71.234463,
            -34.984351
          ],
          [
            -71.23452,
            -34.984356
          ],
          [
            -71.234628,
            -34.984366
          ],
          [
            -71.235046,
            -34.984404
          ],
          [
            -71.235955,
            -34.984487
          ],
          [
            -71.235994,
            -34.98449
          ],
          [
            -71.236046,
            -34.984495
          ],
          [
            -71.236133,
            -34.984503
          ],
          [
            -71.23731,
            -34.98461
          ],
          [
            -71.237357,
            -34.984614
          ],
          [
            -71.237398,
            -34.984618
          ],
          [
            -71.237455,
            -34.984623
          ],
          [
            -71.237799,
            -34.984654
          ],
          [
            -71.238646,
            -34.984731
          ],
          [
            -71.23869,
            -34.984735
          ],
          [
            -71.238778,
            -34.984743
          ],
          [
            -71.238859,
            -34.98475
          ],
          [
            -71.239162,
            -34.984782
          ],
          [
            -71.239564,
            -34.98481
          ],
          [
            -71.239751,
            -34.984821
          ],
          [
            -71.239885,
            -34.984979
          ],
          [
            -71.240085,
            -34.985191
          ],
          [
            -71.240026,
            -34.985614
          ],
          [
            -71.240013,
            -34.985706
          ],
          [
            -71.239764,
            -34.985858
          ]
        ]
      }
    },
    {
      "type": "Feature",
      "id": "route-curico-05",
      "properties": {
        "id": "route-curico-05",
        "name": "Eje Intermodal: Guaiquillo - Estación de Ferrocarriles",
        "description": "Conexión intermodal sur-centro desde Población Guaiquillo hacia la Estación de Trenes.",
        "origin_name": "Sector Guaiquillo Sur",
        "dest_name": "Estación de Trenes Curicó (EFE)",
        "is_demo": false,
        "status": "ALGORITHMIC_RECOMMENDED",
        "category": "Corredor ciclista recomendado",
        "distance_km": 4.08,
        "distance_m": 4081.2,
        "cycling_infra_km": 1.73,
        "cycling_infra_pct": 42.3,
        "cost_score": 3694.7,
        "shortest_distance_km": 3.63,
        "shortest_cycling_infra_pct": 4.7,
        "distance_diff_km": 0.45,
        "length_diff_pct": 12.4,
        "cycling_gain_pct": 37.6,
        "is_same_path": false,
        "streets": [
          "Quirigua Oriente",
          "Lontué",
          "Pasaje Azahares",
          "Pasaje 31",
          "Pasaje 33",
          "Las Orquídeas",
          "Los Narcisos",
          "Las Orquídeas"
        ],
        "source": "Motor de routing A* determinista CicloConecta sobre OpenStreetMap"
      },
      "geometry": {
        "type": "LineString",
        "coordinates": [
          [
            -71.2461,
            -34.998245
          ],
          [
            -71.245748,
            -34.998354
          ],
          [
            -71.245732,
            -34.997829
          ],
          [
            -71.24572,
            -34.997561
          ],
          [
            -71.245716,
            -34.99736
          ],
          [
            -71.245717,
            -34.997237
          ],
          [
            -71.245722,
            -34.997115
          ],
          [
            -71.246072,
            -34.997119
          ],
          [
            -71.246135,
            -34.997117
          ],
          [
            -71.246198,
            -34.99711
          ],
          [
            -71.246259,
            -34.997099
          ],
          [
            -71.246319,
            -34.997084
          ],
          [
            -71.246376,
            -34.997067
          ],
          [
            -71.246416,
            -34.996629
          ],
          [
            -71.246452,
            -34.996225
          ],
          [
            -71.246498,
            -34.995779
          ],
          [
            -71.246545,
            -34.995319
          ],
          [
            -71.246591,
            -34.994877
          ],
          [
            -71.246651,
            -34.994296
          ],
          [
            -71.246654,
            -34.994266
          ],
          [
            -71.246699,
            -34.993826
          ],
          [
            -71.246744,
            -34.993386
          ],
          [
            -71.246335,
            -34.993359
          ],
          [
            -71.246413,
            -34.992481
          ],
          [
            -71.246509,
            -34.991563
          ],
          [
            -71.246554,
            -34.991111
          ],
          [
            -71.24659,
            -34.990664
          ],
          [
            -71.246689,
            -34.990668
          ],
          [
            -71.246704,
            -34.990502
          ],
          [
            -71.246894,
            -34.990199
          ],
          [
            -71.246937,
            -34.990102
          ],
          [
            -71.24686,
            -34.990017
          ],
          [
            -71.246888,
            -34.989994
          ],
          [
            -71.24691,
            -34.989967
          ],
          [
            -71.246923,
            -34.989939
          ],
          [
            -71.246929,
            -34.989909
          ],
          [
            -71.246959,
            -34.989679
          ],
          [
            -71.247008,
            -34.989084
          ],
          [
            -71.247112,
            -34.988013
          ],
          [
            -71.246967,
            -34.988021
          ],
          [
            -71.246316,
            -34.988065
          ],
          [
            -71.245993,
            -34.988096
          ],
          [
            -71.245891,
            -34.988134
          ],
          [
            -71.245736,
            -34.988183
          ],
          [
            -71.245166,
            -34.988354
          ],
          [
            -71.244665,
            -34.988491
          ],
          [
            -71.244609,
            -34.988504
          ],
          [
            -71.244587,
            -34.988412
          ],
          [
            -71.244402,
            -34.988458
          ],
          [
            -71.244077,
            -34.988526
          ],
          [
            -71.243873,
            -34.988568
          ],
          [
            -71.243349,
            -34.988536
          ],
          [
            -71.242507,
            -34.988485
          ],
          [
            -71.242415,
            -34.98848
          ],
          [
            -71.241184,
            -34.988371
          ],
          [
            -71.241136,
            -34.988367
          ],
          [
            -71.24107,
            -34.988361
          ],
          [
            -71.240995,
            -34.988354
          ],
          [
            -71.239752,
            -34.988245
          ],
          [
            -71.239669,
            -34.988237
          ],
          [
            -71.239255,
            -34.988201
          ],
          [
            -71.238399,
            -34.988125
          ],
          [
            -71.238319,
            -34.988118
          ],
          [
            -71.23704,
            -34.988005
          ],
          [
            -71.236953,
            -34.987998
          ],
          [
            -71.235683,
            -34.987878
          ],
          [
            -71.235635,
            -34.987873
          ],
          [
            -71.235576,
            -34.987868
          ],
          [
            -71.235522,
            -34.987862
          ],
          [
            -71.234215,
            -34.987739
          ],
          [
            -71.234095,
            -34.987727
          ],
          [
            -71.233917,
            -34.987711
          ],
          [
            -71.234023,
            -34.986698
          ],
          [
            -71.234038,
            -34.986594
          ],
          [
            -71.234135,
            -34.985671
          ],
          [
            -71.234136,
            -34.985635
          ],
          [
            -71.234138,
            -34.9856
          ],
          [
            -71.234141,
            -34.985554
          ],
          [
            -71.234142,
            -34.985532
          ],
          [
            -71.234156,
            -34.985495
          ],
          [
            -71.234157,
            -34.985463
          ],
          [
            -71.234157,
            -34.985429
          ],
          [
            -71.234162,
            -34.985385
          ],
          [
            -71.234161,
            -34.985357
          ],
          [
            -71.234168,
            -34.985325
          ],
          [
            -71.234176,
            -34.985296
          ],
          [
            -71.234184,
            -34.985268
          ],
          [
            -71.234196,
            -34.985256
          ],
          [
            -71.234223,
            -34.98525
          ],
          [
            -71.234236,
            -34.985236
          ],
          [
            -71.234246,
            -34.985206
          ],
          [
            -71.234246,
            -34.985177
          ],
          [
            -71.234238,
            -34.985162
          ],
          [
            -71.234216,
            -34.985149
          ],
          [
            -71.234206,
            -34.985136
          ],
          [
            -71.234204,
            -34.98511
          ],
          [
            -71.234241,
            -34.984769
          ],
          [
            -71.23423,
            -34.984745
          ],
          [
            -71.234202,
            -34.984727
          ],
          [
            -71.234142,
            -34.98471
          ],
          [
            -71.23413,
            -34.98469
          ],
          [
            -71.234122,
            -34.984658
          ],
          [
            -71.234126,
            -34.98458
          ],
          [
            -71.234126,
            -34.984559
          ],
          [
            -71.234114,
            -34.984533
          ],
          [
            -71.234037,
            -34.984448
          ],
          [
            -71.234029,
            -34.984423
          ],
          [
            -71.234027,
            -34.9844
          ],
          [
            -71.234031,
            -34.984345
          ],
          [
            -71.234036,
            -34.984308
          ],
          [
            -71.234123,
            -34.983545
          ],
          [
            -71.234158,
            -34.983207
          ],
          [
            -71.234169,
            -34.983092
          ],
          [
            -71.23418,
            -34.982934
          ],
          [
            -71.234188,
            -34.982803
          ],
          [
            -71.234179,
            -34.982671
          ],
          [
            -71.234151,
            -34.982488
          ],
          [
            -71.234066,
            -34.982195
          ],
          [
            -71.233909,
            -34.981643
          ],
          [
            -71.233715,
            -34.980986
          ],
          [
            -71.233589,
            -34.981009
          ],
          [
            -71.233508,
            -34.981024
          ],
          [
            -71.233326,
            -34.980475
          ],
          [
            -71.233182,
            -34.97999
          ],
          [
            -71.233036,
            -34.979522
          ],
          [
            -71.232736,
            -34.978447
          ],
          [
            -71.2327,
            -34.978378
          ],
          [
            -71.232547,
            -34.978115
          ],
          [
            -71.231483,
            -34.977402
          ],
          [
            -71.231538,
            -34.977407
          ],
          [
            -71.231599,
            -34.977404
          ],
          [
            -71.231659,
            -34.977401
          ],
          [
            -71.231779,
            -34.977394
          ],
          [
            -71.232372,
            -34.977357
          ],
          [
            -71.232439,
            -34.977371
          ],
          [
            -71.232481,
            -34.97737
          ],
          [
            -71.232576,
            -34.977367
          ],
          [
            -71.232663,
            -34.977361
          ],
          [
            -71.233417,
            -34.977316
          ],
          [
            -71.234021,
            -34.977286
          ],
          [
            -71.23415,
            -34.977999
          ]
        ]
      }
    }
  ]
}