{
  "type": "FeatureCollection",
  "name": "Rutas_Sugeridas_Talca_Algoritmicas",
  "metadata": {
    "city": "talca",
    "is_demo": false,
    "status": "ALGORITHMIC_RECOMMENDED",
    "total_routes": 5,
    "generated_at": "2026-09-09T20:02:23.836379+00:00"
  },
  "features": [
    {
      "type": "Feature",
      "id": "route-talca-01",
      "properties": {
        "id": "route-talca-01",
        "name": "Ruta Norte: Campus Lircay UTalca - Plaza de Armas",
        "description": "Conexión desde el principal campus universitario regional hacia el centro cívico.",
        "origin_name": "Campus Lircay (UTalca)",
        "dest_name": "Plaza de Armas Talca",
        "is_demo": false,
        "status": "ALGORITHMIC_RECOMMENDED",
        "category": "Corredor ciclista recomendado",
        "distance_km": 5.53,
        "distance_m": 5531.1,
        "cycling_infra_km": 3.79,
        "cycling_infra_pct": 68.5,
        "cost_score": 5164.1,
        "shortest_distance_km": 4.68,
        "shortest_cycling_infra_pct": 26.9,
        "distance_diff_km": 0.85,
        "length_diff_pct": 18.3,
        "cycling_gain_pct": 41.6,
        "is_same_path": false,
        "streets": [
          "Calle sin nombre",
          "17 Norte",
          "Calle 10 Oriente",
          "Calle 17 Norte",
          "Calle 11 Oriente",
          "Pasaje 16½ Norte B",
          "Calle sin nombre",
          "Calle 5 Norte"
        ],
        "source": "Motor de routing A* determinista CicloConecta sobre OpenStreetMap"
      },
      "geometry": {
        "type": "LineString",
        "coordinates": [
          [
            -71.636113,
            -35.404565
          ],
          [
            -71.636291,
            -35.404255
          ],
          [
            -71.636317,
            -35.404209
          ],
          [
            -71.636465,
            -35.404239
          ],
          [
            -71.636581,
            -35.404239
          ],
          [
            -71.636802,
            -35.404224
          ],
          [
            -71.636931,
            -35.404219
          ],
          [
            -71.637022,
            -35.404228
          ],
          [
            -71.637098,
            -35.404252
          ],
          [
            -71.637179,
            -35.404309
          ],
          [
            -71.637205,
            -35.404343
          ],
          [
            -71.637425,
            -35.404867
          ],
          [
            -71.63744,
            -35.404902
          ],
          [
            -71.637492,
            -35.404902
          ],
          [
            -71.637538,
            -35.404917
          ],
          [
            -71.638107,
            -35.404769
          ],
          [
            -71.639034,
            -35.404536
          ],
          [
            -71.639176,
            -35.404555
          ],
          [
            -71.639783,
            -35.404405
          ],
          [
            -71.63996,
            -35.404362
          ],
          [
            -71.639984,
            -35.404345
          ],
          [
            -71.64003,
            -35.404304
          ],
          [
            -71.640061,
            -35.40426
          ],
          [
            -71.640166,
            -35.404311
          ],
          [
            -71.64281,
            -35.405552
          ],
          [
            -71.643345,
            -35.405815
          ],
          [
            -71.64349,
            -35.405871
          ],
          [
            -71.643809,
            -35.406028
          ],
          [
            -71.644098,
            -35.406179
          ],
          [
            -71.644866,
            -35.406567
          ],
          [
            -71.644951,
            -35.406667
          ],
          [
            -71.645,
            -35.406676
          ],
          [
            -71.645078,
            -35.40669
          ],
          [
            -71.645162,
            -35.406738
          ],
          [
            -71.645234,
            -35.406777
          ],
          [
            -71.645274,
            -35.406838
          ],
          [
            -71.645309,
            -35.406865
          ],
          [
            -71.645395,
            -35.406871
          ],
          [
            -71.645483,
            -35.406895
          ],
          [
            -71.645843,
            -35.407101
          ],
          [
            -71.646364,
            -35.407494
          ],
          [
            -71.647195,
            -35.408232
          ],
          [
            -71.647393,
            -35.40842
          ],
          [
            -71.64712,
            -35.408714
          ],
          [
            -71.646929,
            -35.408913
          ],
          [
            -71.646782,
            -35.40909
          ],
          [
            -71.646701,
            -35.409158
          ],
          [
            -71.646647,
            -35.409214
          ],
          [
            -71.646365,
            -35.409407
          ],
          [
            -71.646707,
            -35.40973
          ],
          [
            -71.64672,
            -35.409754
          ],
          [
            -71.646722,
            -35.409778
          ],
          [
            -71.646432,
            -35.410035
          ],
          [
            -71.646126,
            -35.410275
          ],
          [
            -71.645792,
            -35.41054
          ],
          [
            -71.645816,
            -35.410569
          ],
          [
            -71.646111,
            -35.410821
          ],
          [
            -71.64607,
            -35.410851
          ],
          [
            -71.64635,
            -35.411103
          ],
          [
            -71.646633,
            -35.411351
          ],
          [
            -71.646903,
            -35.411595
          ],
          [
            -71.647173,
            -35.411871
          ],
          [
            -71.647414,
            -35.412154
          ],
          [
            -71.647667,
            -35.412446
          ],
          [
            -71.647918,
            -35.412741
          ],
          [
            -71.648096,
            -35.412961
          ],
          [
            -71.648554,
            -35.413618
          ],
          [
            -71.648663,
            -35.413831
          ],
          [
            -71.648883,
            -35.414316
          ],
          [
            -71.648947,
            -35.414653
          ],
          [
            -71.648933,
            -35.415089
          ],
          [
            -71.64891,
            -35.415649
          ],
          [
            -71.64891,
            -35.41575
          ],
          [
            -71.648894,
            -35.416308
          ],
          [
            -71.648904,
            -35.416478
          ],
          [
            -71.648952,
            -35.416886
          ],
          [
            -71.648982,
            -35.417137
          ],
          [
            -71.649048,
            -35.417703
          ],
          [
            -71.649195,
            -35.419013
          ],
          [
            -71.649204,
            -35.419089
          ],
          [
            -71.649209,
            -35.41914
          ],
          [
            -71.649332,
            -35.420238
          ],
          [
            -71.649384,
            -35.4207
          ],
          [
            -71.6494,
            -35.420855
          ],
          [
            -71.649472,
            -35.421486
          ],
          [
            -71.649545,
            -35.42148
          ],
          [
            -71.649588,
            -35.421812
          ],
          [
            -71.649639,
            -35.421847
          ],
          [
            -71.649677,
            -35.421874
          ],
          [
            -71.649762,
            -35.421923
          ],
          [
            -71.649783,
            -35.421939
          ],
          [
            -71.649781,
            -35.421964
          ],
          [
            -71.649799,
            -35.422016
          ],
          [
            -71.649824,
            -35.422041
          ],
          [
            -71.649905,
            -35.422118
          ],
          [
            -71.649892,
            -35.422135
          ],
          [
            -71.649867,
            -35.4222
          ],
          [
            -71.649888,
            -35.422288
          ],
          [
            -71.649988,
            -35.42274
          ],
          [
            -71.650083,
            -35.422731
          ],
          [
            -71.650887,
            -35.422677
          ],
          [
            -71.651649,
            -35.422631
          ],
          [
            -71.652584,
            -35.422567
          ],
          [
            -71.653575,
            -35.422484
          ],
          [
            -71.65364,
            -35.422481
          ],
          [
            -71.654101,
            -35.422451
          ],
          [
            -71.654883,
            -35.422395
          ],
          [
            -71.655293,
            -35.422359
          ],
          [
            -71.656029,
            -35.422308
          ],
          [
            -71.65657,
            -35.422278
          ],
          [
            -71.65794,
            -35.422173
          ],
          [
            -71.658008,
            -35.42217
          ],
          [
            -71.659426,
            -35.422078
          ],
          [
            -71.659916,
            -35.422039
          ],
          [
            -71.660717,
            -35.421983
          ],
          [
            -71.661681,
            -35.421916
          ],
          [
            -71.662084,
            -35.421886
          ],
          [
            -71.662481,
            -35.421858
          ],
          [
            -71.663089,
            -35.421815
          ],
          [
            -71.663432,
            -35.421788
          ],
          [
            -71.664831,
            -35.421682
          ],
          [
            -71.665469,
            -35.421634
          ],
          [
            -71.665587,
            -35.421625
          ],
          [
            -71.666225,
            -35.421585
          ],
          [
            -71.666836,
            -35.42154
          ],
          [
            -71.667602,
            -35.42148
          ],
          [
            -71.667825,
            -35.421464
          ],
          [
            -71.667829,
            -35.421499
          ],
          [
            -71.668396,
            -35.421467
          ],
          [
            -71.668836,
            -35.421431
          ],
          [
            -71.668898,
            -35.421427
          ],
          [
            -71.668906,
            -35.42152
          ],
          [
            -71.668937,
            -35.421927
          ],
          [
            -71.668941,
            -35.42196
          ],
          [
            -71.668946,
            -35.422005
          ],
          [
            -71.668948,
            -35.422019
          ],
          [
            -71.66908,
            -35.423186
          ],
          [
            -71.669087,
            -35.423309
          ],
          [
            -71.669089,
            -35.423356
          ],
          [
            -71.669103,
            -35.423471
          ],
          [
            -71.669206,
            -35.424369
          ],
          [
            -71.669279,
            -35.425008
          ],
          [
            -71.669359,
            -35.425695
          ],
          [
            -71.66922,
            -35.425705
          ],
          [
            -71.668631,
            -35.42575
          ],
          [
            -71.667999,
            -35.425799
          ],
          [
            -71.667747,
            -35.425819
          ],
          [
            -71.667545,
            -35.425835
          ],
          [
            -71.666727,
            -35.425901
          ],
          [
            -71.666704,
            -35.425903
          ],
          [
            -71.666663,
            -35.425907
          ],
          [
            -71.666618,
            -35.425912
          ],
          [
            -71.666534,
            -35.425922
          ],
          [
            -71.666381,
            -35.425939
          ]
        ]
      }
    },
    {
      "type": "Feature",
      "id": "route-talca-02",
      "properties": {
        "id": "route-talca-02",
        "name": "Ruta Oriente: Mall Plaza Maule / Las Rastras - Plaza de Armas",
        "description": "Corredor oriente comercial y residencial hacia el centro cívico por eje 2 Norte / 1 Norte.",
        "origin_name": "Mall Plaza Maule / Las Rastras",
        "dest_name": "Plaza de Armas Talca",
        "is_demo": false,
        "status": "ALGORITHMIC_RECOMMENDED",
        "category": "Corredor ciclista recomendado",
        "distance_km": 6.31,
        "distance_m": 6308.6,
        "cycling_infra_km": 2.83,
        "cycling_infra_pct": 44.9,
        "cost_score": 6469.9,
        "shortest_distance_km": 5.09,
        "shortest_cycling_infra_pct": 0.0,
        "distance_diff_km": 1.22,
        "length_diff_pct": 24.0,
        "cycling_gain_pct": 44.9,
        "is_same_path": false,
        "streets": [
          "Pasaje 35 Oriente",
          "Calle 4½ Norte",
          "Calle sin nombre",
          "Calle 34 Oriente",
          "Calle 5 Norte",
          "Calle 32 Oriente",
          "Calle sin nombre",
          "Calle 5 Norte"
        ],
        "source": "Motor de routing A* determinista CicloConecta sobre OpenStreetMap"
      },
      "geometry": {
        "type": "LineString",
        "coordinates": [
          [
            -71.618328,
            -35.432747
          ],
          [
            -71.618133,
            -35.432437
          ],
          [
            -71.617792,
            -35.431695
          ],
          [
            -71.617497,
            -35.431004
          ],
          [
            -71.618275,
            -35.430782
          ],
          [
            -71.618769,
            -35.43065
          ],
          [
            -71.618741,
            -35.430593
          ],
          [
            -71.618731,
            -35.430488
          ],
          [
            -71.618751,
            -35.430443
          ],
          [
            -71.618783,
            -35.430404
          ],
          [
            -71.61883,
            -35.430369
          ],
          [
            -71.618911,
            -35.430339
          ],
          [
            -71.61876,
            -35.429955
          ],
          [
            -71.620299,
            -35.429438
          ],
          [
            -71.620392,
            -35.429469
          ],
          [
            -71.620625,
            -35.429555
          ],
          [
            -71.620927,
            -35.429462
          ],
          [
            -71.620998,
            -35.429431
          ],
          [
            -71.621148,
            -35.429366
          ],
          [
            -71.621182,
            -35.429303
          ],
          [
            -71.621193,
            -35.429151
          ],
          [
            -71.622007,
            -35.428889
          ],
          [
            -71.622304,
            -35.428795
          ],
          [
            -71.622341,
            -35.42878
          ],
          [
            -71.622465,
            -35.428738
          ],
          [
            -71.622554,
            -35.42871
          ],
          [
            -71.622637,
            -35.428813
          ],
          [
            -71.622733,
            -35.428942
          ],
          [
            -71.62297,
            -35.429285
          ],
          [
            -71.623668,
            -35.428946
          ],
          [
            -71.624314,
            -35.428672
          ],
          [
            -71.624575,
            -35.429038
          ],
          [
            -71.62619,
            -35.42836
          ],
          [
            -71.626276,
            -35.428324
          ],
          [
            -71.626369,
            -35.428291
          ],
          [
            -71.626386,
            -35.428285
          ],
          [
            -71.626427,
            -35.428272
          ],
          [
            -71.626469,
            -35.428263
          ],
          [
            -71.626503,
            -35.428257
          ],
          [
            -71.626544,
            -35.428253
          ],
          [
            -71.6266,
            -35.428249
          ],
          [
            -71.626661,
            -35.428231
          ],
          [
            -71.627302,
            -35.428041
          ],
          [
            -71.627371,
            -35.428022
          ],
          [
            -71.62745,
            -35.428004
          ],
          [
            -71.627576,
            -35.427985
          ],
          [
            -71.627596,
            -35.428024
          ],
          [
            -71.627869,
            -35.428549
          ],
          [
            -71.627893,
            -35.428542
          ],
          [
            -71.628884,
            -35.428274
          ],
          [
            -71.628924,
            -35.428263
          ],
          [
            -71.628887,
            -35.428175
          ],
          [
            -71.628944,
            -35.42816
          ],
          [
            -71.629346,
            -35.428048
          ],
          [
            -71.629737,
            -35.427939
          ],
          [
            -71.630234,
            -35.427801
          ],
          [
            -71.630574,
            -35.427706
          ],
          [
            -71.630882,
            -35.427621
          ],
          [
            -71.630997,
            -35.427589
          ],
          [
            -71.631041,
            -35.427571
          ],
          [
            -71.631082,
            -35.427549
          ],
          [
            -71.631117,
            -35.427524
          ],
          [
            -71.631148,
            -35.427496
          ],
          [
            -71.631374,
            -35.427296
          ],
          [
            -71.631487,
            -35.427192
          ],
          [
            -71.631521,
            -35.427151
          ],
          [
            -71.631545,
            -35.427142
          ],
          [
            -71.631574,
            -35.427132
          ],
          [
            -71.631601,
            -35.427122
          ],
          [
            -71.631632,
            -35.427109
          ],
          [
            -71.632306,
            -35.426908
          ],
          [
            -71.633534,
            -35.426551
          ],
          [
            -71.634122,
            -35.42637
          ],
          [
            -71.634186,
            -35.426362
          ],
          [
            -71.634247,
            -35.426385
          ],
          [
            -71.634278,
            -35.426341
          ],
          [
            -71.634329,
            -35.42627
          ],
          [
            -71.634353,
            -35.42622
          ],
          [
            -71.634367,
            -35.42619
          ],
          [
            -71.634571,
            -35.426232
          ],
          [
            -71.635034,
            -35.42632
          ],
          [
            -71.635089,
            -35.426322
          ],
          [
            -71.635242,
            -35.426345
          ],
          [
            -71.635288,
            -35.426391
          ],
          [
            -71.635362,
            -35.426447
          ],
          [
            -71.635565,
            -35.426477
          ],
          [
            -71.635855,
            -35.426532
          ],
          [
            -71.636169,
            -35.426593
          ],
          [
            -71.636506,
            -35.426671
          ],
          [
            -71.636728,
            -35.426709
          ],
          [
            -71.636756,
            -35.426714
          ],
          [
            -71.637232,
            -35.42682
          ],
          [
            -71.637381,
            -35.426846
          ],
          [
            -71.637492,
            -35.426879
          ],
          [
            -71.637778,
            -35.426897
          ],
          [
            -71.637913,
            -35.426905
          ],
          [
            -71.638203,
            -35.426968
          ],
          [
            -71.638789,
            -35.427097
          ],
          [
            -71.638677,
            -35.427419
          ],
          [
            -71.638668,
            -35.427477
          ],
          [
            -71.63867,
            -35.427526
          ],
          [
            -71.638681,
            -35.427569
          ],
          [
            -71.63894,
            -35.428004
          ],
          [
            -71.639325,
            -35.427869
          ],
          [
            -71.639445,
            -35.427753
          ],
          [
            -71.639525,
            -35.427757
          ],
          [
            -71.639648,
            -35.427724
          ],
          [
            -71.639704,
            -35.4277
          ],
          [
            -71.639768,
            -35.427673
          ],
          [
            -71.63986,
            -35.427648
          ],
          [
            -71.639908,
            -35.427645
          ],
          [
            -71.640058,
            -35.427591
          ],
          [
            -71.640211,
            -35.427499
          ],
          [
            -71.640443,
            -35.427428
          ],
          [
            -71.640755,
            -35.427368
          ],
          [
            -71.641415,
            -35.427178
          ],
          [
            -71.641868,
            -35.42699
          ],
          [
            -71.643145,
            -35.426417
          ],
          [
            -71.643261,
            -35.426359
          ],
          [
            -71.643562,
            -35.42621
          ],
          [
            -71.643797,
            -35.426085
          ],
          [
            -71.644513,
            -35.425722
          ],
          [
            -71.644927,
            -35.425515
          ],
          [
            -71.645132,
            -35.425416
          ],
          [
            -71.645535,
            -35.425239
          ],
          [
            -71.645979,
            -35.425038
          ],
          [
            -71.646297,
            -35.424824
          ],
          [
            -71.646505,
            -35.424605
          ],
          [
            -71.646739,
            -35.424214
          ],
          [
            -71.646955,
            -35.423898
          ],
          [
            -71.647147,
            -35.423701
          ],
          [
            -71.647236,
            -35.423619
          ],
          [
            -71.647584,
            -35.423416
          ],
          [
            -71.647726,
            -35.423357
          ],
          [
            -71.647808,
            -35.423328
          ],
          [
            -71.647919,
            -35.423296
          ],
          [
            -71.648072,
            -35.423259
          ],
          [
            -71.648132,
            -35.423242
          ],
          [
            -71.648207,
            -35.423224
          ],
          [
            -71.648272,
            -35.42321
          ],
          [
            -71.648343,
            -35.423197
          ],
          [
            -71.648396,
            -35.423189
          ],
          [
            -71.648459,
            -35.423181
          ],
          [
            -71.648525,
            -35.423173
          ],
          [
            -71.648598,
            -35.423167
          ],
          [
            -71.648799,
            -35.423154
          ],
          [
            -71.64955,
            -35.423108
          ],
          [
            -71.649565,
            -35.423106
          ],
          [
            -71.649571,
            -35.423105
          ],
          [
            -71.649581,
            -35.423102
          ],
          [
            -71.649593,
            -35.423093
          ],
          [
            -71.6496,
            -35.423082
          ],
          [
            -71.649606,
            -35.423079
          ],
          [
            -71.649662,
            -35.423073
          ],
          [
            -71.649792,
            -35.423066
          ],
          [
            -71.649878,
            -35.423057
          ],
          [
            -71.649884,
            -35.423028
          ],
          [
            -71.649901,
            -35.422999
          ],
          [
            -71.650047,
            -35.422843
          ],
          [
            -71.650093,
            -35.422788
          ],
          [
            -71.65009,
            -35.422762
          ],
          [
            -71.650083,
            -35.422731
          ],
          [
            -71.650887,
            -35.422677
          ],
          [
            -71.651649,
            -35.422631
          ],
          [
            -71.652584,
            -35.422567
          ],
          [
            -71.653575,
            -35.422484
          ],
          [
            -71.65364,
            -35.422481
          ],
          [
            -71.654101,
            -35.422451
          ],
          [
            -71.654883,
            -35.422395
          ],
          [
            -71.655293,
            -35.422359
          ],
          [
            -71.656029,
            -35.422308
          ],
          [
            -71.65657,
            -35.422278
          ],
          [
            -71.65794,
            -35.422173
          ],
          [
            -71.658008,
            -35.42217
          ],
          [
            -71.659426,
            -35.422078
          ],
          [
            -71.659916,
            -35.422039
          ],
          [
            -71.660717,
            -35.421983
          ],
          [
            -71.661681,
            -35.421916
          ],
          [
            -71.662084,
            -35.421886
          ],
          [
            -71.662481,
            -35.421858
          ],
          [
            -71.663089,
            -35.421815
          ],
          [
            -71.663432,
            -35.421788
          ],
          [
            -71.664831,
            -35.421682
          ],
          [
            -71.665469,
            -35.421634
          ],
          [
            -71.665587,
            -35.421625
          ],
          [
            -71.666225,
            -35.421585
          ],
          [
            -71.666836,
            -35.42154
          ],
          [
            -71.667602,
            -35.42148
          ],
          [
            -71.667825,
            -35.421464
          ],
          [
            -71.667829,
            -35.421499
          ],
          [
            -71.668396,
            -35.421467
          ],
          [
            -71.668836,
            -35.421431
          ],
          [
            -71.668898,
            -35.421427
          ],
          [
            -71.668906,
            -35.42152
          ],
          [
            -71.668937,
            -35.421927
          ],
          [
            -71.668941,
            -35.42196
          ],
          [
            -71.668946,
            -35.422005
          ],
          [
            -71.668948,
            -35.422019
          ],
          [
            -71.66908,
            -35.423186
          ],
          [
            -71.669087,
            -35.423309
          ],
          [
            -71.669089,
            -35.423356
          ],
          [
            -71.669103,
            -35.423471
          ],
          [
            -71.669206,
            -35.424369
          ],
          [
            -71.669279,
            -35.425008
          ],
          [
            -71.669359,
            -35.425695
          ],
          [
            -71.66922,
            -35.425705
          ],
          [
            -71.668631,
            -35.42575
          ],
          [
            -71.667999,
            -35.425799
          ],
          [
            -71.667747,
            -35.425819
          ],
          [
            -71.667545,
            -35.425835
          ],
          [
            -71.666727,
            -35.425901
          ],
          [
            -71.666704,
            -35.425903
          ],
          [
            -71.666663,
            -35.425907
          ],
          [
            -71.666618,
            -35.425912
          ],
          [
            -71.666534,
            -35.425922
          ],
          [
            -71.666381,
            -35.425939
          ]
        ]
      }
    },
    {
      "type": "Feature",
      "id": "route-talca-03",
      "properties": {
        "id": "route-talca-03",
        "name": "Ruta Poniente: Balneario Río Claro / Alameda - Plaza de Armas",
        "description": "Eje recreativo y patrimonial que cruza la Alameda histórica hacia el centro.",
        "origin_name": "Balneario Río Claro / Alameda",
        "dest_name": "Plaza de Armas Talca",
        "is_demo": false,
        "status": "ALGORITHMIC_RECOMMENDED",
        "category": "Corredor ciclista recomendado",
        "distance_km": 2.48,
        "distance_m": 2480.2,
        "cycling_infra_km": 0.72,
        "cycling_infra_pct": 29.1,
        "cost_score": 2658.5,
        "shortest_distance_km": 2.0,
        "shortest_cycling_infra_pct": 0.0,
        "distance_diff_km": 0.48,
        "length_diff_pct": 23.9,
        "cycling_gain_pct": 29.1,
        "is_same_path": false,
        "streets": [
          "La Papelera Asunción",
          "Pasaje Central",
          "Otawa",
          "Pasaje San Juan",
          "La Papelera Asunción",
          "Calle sin nombre",
          "Calle 2 Norte",
          "6 Poniente"
        ],
        "source": "Motor de routing A* determinista CicloConecta sobre OpenStreetMap"
      },
      "geometry": {
        "type": "LineString",
        "coordinates": [
          [
            -71.680368,
            -35.427512
          ],
          [
            -71.680343,
            -35.427506
          ],
          [
            -71.68033,
            -35.427511
          ],
          [
            -71.680313,
            -35.427522
          ],
          [
            -71.679607,
            -35.42801
          ],
          [
            -71.679155,
            -35.428301
          ],
          [
            -71.679021,
            -35.428398
          ],
          [
            -71.679067,
            -35.428435
          ],
          [
            -71.678547,
            -35.428795
          ],
          [
            -71.678422,
            -35.428883
          ],
          [
            -71.677718,
            -35.429396
          ],
          [
            -71.677221,
            -35.429772
          ],
          [
            -71.67692,
            -35.429918
          ],
          [
            -71.67674,
            -35.430036
          ],
          [
            -71.676619,
            -35.430114
          ],
          [
            -71.676565,
            -35.430061
          ],
          [
            -71.676201,
            -35.429535
          ],
          [
            -71.676068,
            -35.429337
          ],
          [
            -71.675941,
            -35.429049
          ],
          [
            -71.675866,
            -35.428844
          ],
          [
            -71.675859,
            -35.428776
          ],
          [
            -71.675859,
            -35.428678
          ],
          [
            -71.675835,
            -35.428523
          ],
          [
            -71.675808,
            -35.428376
          ],
          [
            -71.675749,
            -35.428204
          ],
          [
            -71.675724,
            -35.428138
          ],
          [
            -71.675711,
            -35.428062
          ],
          [
            -71.675621,
            -35.427554
          ],
          [
            -71.67561,
            -35.427478
          ],
          [
            -71.675587,
            -35.427318
          ],
          [
            -71.67557,
            -35.427069
          ],
          [
            -71.67557,
            -35.426999
          ],
          [
            -71.67557,
            -35.426801
          ],
          [
            -71.675581,
            -35.426556
          ],
          [
            -71.675604,
            -35.426274
          ],
          [
            -71.675621,
            -35.426024
          ],
          [
            -71.675644,
            -35.425849
          ],
          [
            -71.675653,
            -35.425797
          ],
          [
            -71.675679,
            -35.425692
          ],
          [
            -71.67573,
            -35.425444
          ],
          [
            -71.675752,
            -35.425359
          ],
          [
            -71.675763,
            -35.425317
          ],
          [
            -71.675802,
            -35.42523
          ],
          [
            -71.675848,
            -35.4251
          ],
          [
            -71.675875,
            -35.425011
          ],
          [
            -71.676033,
            -35.424388
          ],
          [
            -71.676057,
            -35.424268
          ],
          [
            -71.676063,
            -35.424107
          ],
          [
            -71.676052,
            -35.423922
          ],
          [
            -71.676044,
            -35.423837
          ],
          [
            -71.675976,
            -35.423842
          ],
          [
            -71.67584,
            -35.423848
          ],
          [
            -71.675765,
            -35.423854
          ],
          [
            -71.675307,
            -35.423888
          ],
          [
            -71.674488,
            -35.423954
          ],
          [
            -71.673775,
            -35.424011
          ],
          [
            -71.67337,
            -35.424043
          ],
          [
            -71.673242,
            -35.422846
          ],
          [
            -71.671894,
            -35.422949
          ],
          [
            -71.670451,
            -35.423052
          ],
          [
            -71.670538,
            -35.424278
          ],
          [
            -71.670601,
            -35.424868
          ],
          [
            -71.670633,
            -35.42522
          ],
          [
            -71.670669,
            -35.425594
          ],
          [
            -71.669379,
            -35.425693
          ],
          [
            -71.669359,
            -35.425695
          ],
          [
            -71.66922,
            -35.425705
          ],
          [
            -71.668631,
            -35.42575
          ],
          [
            -71.667999,
            -35.425799
          ],
          [
            -71.667747,
            -35.425819
          ],
          [
            -71.667545,
            -35.425835
          ],
          [
            -71.666727,
            -35.425901
          ],
          [
            -71.666704,
            -35.425903
          ],
          [
            -71.666663,
            -35.425907
          ],
          [
            -71.666618,
            -35.425912
          ],
          [
            -71.666534,
            -35.425922
          ],
          [
            -71.666381,
            -35.425939
          ]
        ]
      }
    },
    {
      "type": "Feature",
      "id": "route-talca-04",
      "properties": {
        "id": "route-talca-04",
        "name": "Ruta Sur: Sector La Florida / Colín - Plaza de Armas",
        "description": "Conexión habitacional sur conectando barrios de La Florida y Colín con el centro.",
        "origin_name": "Sector La Florida / Av. Colín",
        "dest_name": "Plaza de Armas Talca",
        "is_demo": false,
        "status": "ALGORITHMIC_RECOMMENDED",
        "category": "Corredor ciclista recomendado",
        "distance_km": 3.33,
        "distance_m": 3330.4,
        "cycling_infra_km": 0.0,
        "cycling_infra_pct": 0.0,
        "cost_score": 3786.4,
        "shortest_distance_km": 3.14,
        "shortest_cycling_infra_pct": 0.0,
        "distance_diff_km": 0.19,
        "length_diff_pct": 6.0,
        "cycling_gain_pct": 0.0,
        "is_same_path": false,
        "streets": [
          "Las Higueras",
          "Calle 18 Sur",
          "Las Higueras",
          "Calle sin nombre",
          "El Quisco",
          "Mosqueta",
          "Hulli",
          "Calle 16 Sur"
        ],
        "source": "Motor de routing A* determinista CicloConecta sobre OpenStreetMap"
      },
      "geometry": {
        "type": "LineString",
        "coordinates": [
          [
            -71.660004,
            -35.44983
          ],
          [
            -71.660113,
            -35.449425
          ],
          [
            -71.660207,
            -35.449409
          ],
          [
            -71.659513,
            -35.44834
          ],
          [
            -71.659993,
            -35.44814
          ],
          [
            -71.660098,
            -35.448098
          ],
          [
            -71.660753,
            -35.447807
          ],
          [
            -71.660499,
            -35.447428
          ],
          [
            -71.660229,
            -35.447024
          ],
          [
            -71.660691,
            -35.446819
          ],
          [
            -71.660414,
            -35.446405
          ],
          [
            -71.66058,
            -35.44633
          ],
          [
            -71.660384,
            -35.446042
          ],
          [
            -71.660343,
            -35.445982
          ],
          [
            -71.660319,
            -35.445929
          ],
          [
            -71.660316,
            -35.445884
          ],
          [
            -71.660335,
            -35.445828
          ],
          [
            -71.660345,
            -35.445779
          ],
          [
            -71.66034,
            -35.445735
          ],
          [
            -71.660325,
            -35.445692
          ],
          [
            -71.660293,
            -35.445605
          ],
          [
            -71.66018,
            -35.44536
          ],
          [
            -71.660148,
            -35.445264
          ],
          [
            -71.660459,
            -35.445143
          ],
          [
            -71.660965,
            -35.44493
          ],
          [
            -71.660834,
            -35.444765
          ],
          [
            -71.660815,
            -35.444728
          ],
          [
            -71.660804,
            -35.444688
          ],
          [
            -71.6608,
            -35.444646
          ],
          [
            -71.660797,
            -35.444585
          ],
          [
            -71.660797,
            -35.444514
          ],
          [
            -71.660783,
            -35.444432
          ],
          [
            -71.660437,
            -35.443544
          ],
          [
            -71.660396,
            -35.443443
          ],
          [
            -71.66036,
            -35.443382
          ],
          [
            -71.66033,
            -35.443332
          ],
          [
            -71.660167,
            -35.443102
          ],
          [
            -71.660156,
            -35.443084
          ],
          [
            -71.660132,
            -35.443047
          ],
          [
            -71.6601,
            -35.442959
          ],
          [
            -71.660091,
            -35.44292
          ],
          [
            -71.65998,
            -35.442534
          ],
          [
            -71.660725,
            -35.442264
          ],
          [
            -71.660708,
            -35.442161
          ],
          [
            -71.660689,
            -35.441953
          ],
          [
            -71.660692,
            -35.441887
          ],
          [
            -71.660695,
            -35.441815
          ],
          [
            -71.660685,
            -35.441731
          ],
          [
            -71.660673,
            -35.441685
          ],
          [
            -71.660658,
            -35.441636
          ],
          [
            -71.660637,
            -35.441588
          ],
          [
            -71.660569,
            -35.441462
          ],
          [
            -71.660534,
            -35.441406
          ],
          [
            -71.660466,
            -35.44128
          ],
          [
            -71.660436,
            -35.441205
          ],
          [
            -71.660411,
            -35.441129
          ],
          [
            -71.660391,
            -35.441048
          ],
          [
            -71.660374,
            -35.440975
          ],
          [
            -71.660356,
            -35.440716
          ],
          [
            -71.660342,
            -35.440587
          ],
          [
            -71.660319,
            -35.44033
          ],
          [
            -71.660302,
            -35.440216
          ],
          [
            -71.660295,
            -35.440037
          ],
          [
            -71.660295,
            -35.439988
          ],
          [
            -71.660339,
            -35.439939
          ],
          [
            -71.660377,
            -35.439912
          ],
          [
            -71.660448,
            -35.43988
          ],
          [
            -71.66058,
            -35.439825
          ],
          [
            -71.66105,
            -35.439636
          ],
          [
            -71.661089,
            -35.439619
          ],
          [
            -71.661274,
            -35.439541
          ],
          [
            -71.661723,
            -35.439299
          ],
          [
            -71.661817,
            -35.439296
          ],
          [
            -71.661912,
            -35.439303
          ],
          [
            -71.661917,
            -35.439266
          ],
          [
            -71.661939,
            -35.438716
          ],
          [
            -71.662178,
            -35.438606
          ],
          [
            -71.662273,
            -35.438572
          ],
          [
            -71.662329,
            -35.438554
          ],
          [
            -71.662367,
            -35.438545
          ],
          [
            -71.66244,
            -35.438531
          ],
          [
            -71.662461,
            -35.438442
          ],
          [
            -71.6625,
            -35.438385
          ],
          [
            -71.662596,
            -35.438321
          ],
          [
            -71.66289,
            -35.438137
          ],
          [
            -71.662975,
            -35.438073
          ],
          [
            -71.663067,
            -35.437987
          ],
          [
            -71.663125,
            -35.437927
          ],
          [
            -71.663114,
            -35.437847
          ],
          [
            -71.663122,
            -35.437761
          ],
          [
            -71.663145,
            -35.437553
          ],
          [
            -71.663217,
            -35.437362
          ],
          [
            -71.663383,
            -35.437115
          ],
          [
            -71.663631,
            -35.436855
          ],
          [
            -71.664212,
            -35.436452
          ],
          [
            -71.66538,
            -35.435625
          ],
          [
            -71.665786,
            -35.435337
          ],
          [
            -71.665952,
            -35.435237
          ],
          [
            -71.666023,
            -35.435197
          ],
          [
            -71.666149,
            -35.435132
          ],
          [
            -71.666412,
            -35.434983
          ],
          [
            -71.666491,
            -35.43493
          ],
          [
            -71.666536,
            -35.434901
          ],
          [
            -71.666648,
            -35.434826
          ],
          [
            -71.666738,
            -35.434766
          ],
          [
            -71.66687,
            -35.434673
          ],
          [
            -71.666382,
            -35.434227
          ],
          [
            -71.666375,
            -35.434206
          ],
          [
            -71.66638,
            -35.434183
          ],
          [
            -71.666661,
            -35.433976
          ],
          [
            -71.666984,
            -35.433747
          ],
          [
            -71.667325,
            -35.433482
          ],
          [
            -71.667291,
            -35.433455
          ],
          [
            -71.66725,
            -35.433415
          ],
          [
            -71.666922,
            -35.433086
          ],
          [
            -71.66687,
            -35.433045
          ],
          [
            -71.666838,
            -35.433014
          ],
          [
            -71.666804,
            -35.432994
          ],
          [
            -71.666849,
            -35.432892
          ],
          [
            -71.666883,
            -35.432789
          ],
          [
            -71.666899,
            -35.432699
          ],
          [
            -71.666942,
            -35.432593
          ],
          [
            -71.667227,
            -35.432547
          ],
          [
            -71.66714,
            -35.43154
          ],
          [
            -71.667042,
            -35.430429
          ],
          [
            -71.666953,
            -35.429308
          ],
          [
            -71.66691,
            -35.428787
          ],
          [
            -71.666859,
            -35.428302
          ],
          [
            -71.666856,
            -35.428272
          ],
          [
            -71.666844,
            -35.428165
          ],
          [
            -71.666837,
            -35.428087
          ],
          [
            -71.666766,
            -35.427362
          ],
          [
            -71.666745,
            -35.427149
          ],
          [
            -71.666741,
            -35.427114
          ],
          [
            -71.666735,
            -35.42705
          ],
          [
            -71.666729,
            -35.426989
          ],
          [
            -71.666706,
            -35.426783
          ],
          [
            -71.666642,
            -35.426141
          ],
          [
            -71.666628,
            -35.426097
          ],
          [
            -71.666589,
            -35.426055
          ],
          [
            -71.666543,
            -35.426017
          ],
          [
            -71.666493,
            -35.425986
          ],
          [
            -71.666439,
            -35.42596
          ],
          [
            -71.666381,
            -35.425939
          ]
        ]
      }
    },
    {
      "type": "Feature",
      "id": "route-talca-05",
      "properties": {
        "id": "route-talca-05",
        "name": "Eje Intermodal: Estación de Ferrocarriles - Campus Lircay UTalca",
        "description": "Corredor intermodal que une la Estación de Trenes (EFE) con el Campus UTalca.",
        "origin_name": "Estación de Ferrocarriles (11 Ote / 1 Sur)",
        "dest_name": "Campus Lircay (UTalca)",
        "is_demo": false,
        "status": "ALGORITHMIC_RECOMMENDED",
        "category": "Corredor ciclista recomendado",
        "distance_km": 3.75,
        "distance_m": 3749.5,
        "cycling_infra_km": 2.38,
        "cycling_infra_pct": 63.5,
        "cost_score": 3548.2,
        "shortest_distance_km": 3.58,
        "shortest_cycling_infra_pct": 45.9,
        "distance_diff_km": 0.17,
        "length_diff_pct": 4.8,
        "cycling_gain_pct": 17.6,
        "is_same_path": false,
        "streets": [
          "Calle 10 Oriente",
          "Calle sin nombre",
          "Avenida Salvador Allende",
          "Calle sin nombre",
          "Pasaje 16½ Norte B",
          "Calle 11 Oriente",
          "Calle 17 Norte",
          "Calle 10 Oriente"
        ],
        "source": "Motor de routing A* determinista CicloConecta sobre OpenStreetMap"
      },
      "geometry": {
        "type": "LineString",
        "coordinates": [
          [
            -71.651931,
            -35.42746
          ],
          [
            -71.651904,
            -35.427283
          ],
          [
            -71.6519,
            -35.427256
          ],
          [
            -71.651889,
            -35.427184
          ],
          [
            -71.651878,
            -35.427107
          ],
          [
            -71.651819,
            -35.426716
          ],
          [
            -71.65179,
            -35.42652
          ],
          [
            -71.651762,
            -35.426332
          ],
          [
            -71.651693,
            -35.425872
          ],
          [
            -71.651688,
            -35.425834
          ],
          [
            -71.651678,
            -35.42577
          ],
          [
            -71.65167,
            -35.425717
          ],
          [
            -71.651606,
            -35.425284
          ],
          [
            -71.651527,
            -35.424761
          ],
          [
            -71.651518,
            -35.424698
          ],
          [
            -71.651434,
            -35.424132
          ],
          [
            -71.651379,
            -35.423763
          ],
          [
            -71.65132,
            -35.423296
          ],
          [
            -71.651314,
            -35.423273
          ],
          [
            -71.650244,
            -35.423378
          ],
          [
            -71.649981,
            -35.423397
          ],
          [
            -71.649928,
            -35.423353
          ],
          [
            -71.649895,
            -35.423297
          ],
          [
            -71.649886,
            -35.423215
          ],
          [
            -71.649883,
            -35.423131
          ],
          [
            -71.649878,
            -35.423057
          ],
          [
            -71.649792,
            -35.423066
          ],
          [
            -71.649662,
            -35.423073
          ],
          [
            -71.649631,
            -35.422768
          ],
          [
            -71.649606,
            -35.422551
          ],
          [
            -71.649591,
            -35.422205
          ],
          [
            -71.649615,
            -35.422114
          ],
          [
            -71.649597,
            -35.421914
          ],
          [
            -71.64952,
            -35.421921
          ],
          [
            -71.649472,
            -35.421486
          ],
          [
            -71.6494,
            -35.420855
          ],
          [
            -71.649384,
            -35.4207
          ],
          [
            -71.649332,
            -35.420238
          ],
          [
            -71.649209,
            -35.41914
          ],
          [
            -71.649204,
            -35.419089
          ],
          [
            -71.649195,
            -35.419013
          ],
          [
            -71.649048,
            -35.417703
          ],
          [
            -71.648982,
            -35.417137
          ],
          [
            -71.648952,
            -35.416886
          ],
          [
            -71.648904,
            -35.416478
          ],
          [
            -71.648894,
            -35.416308
          ],
          [
            -71.64891,
            -35.41575
          ],
          [
            -71.64891,
            -35.415649
          ],
          [
            -71.648933,
            -35.415089
          ],
          [
            -71.648947,
            -35.414653
          ],
          [
            -71.648883,
            -35.414316
          ],
          [
            -71.648663,
            -35.413831
          ],
          [
            -71.648554,
            -35.413618
          ],
          [
            -71.648096,
            -35.412961
          ],
          [
            -71.647918,
            -35.412741
          ],
          [
            -71.647667,
            -35.412446
          ],
          [
            -71.647414,
            -35.412154
          ],
          [
            -71.647173,
            -35.411871
          ],
          [
            -71.646903,
            -35.411595
          ],
          [
            -71.646633,
            -35.411351
          ],
          [
            -71.64635,
            -35.411103
          ],
          [
            -71.64607,
            -35.410851
          ],
          [
            -71.646111,
            -35.410821
          ],
          [
            -71.645816,
            -35.410569
          ],
          [
            -71.645792,
            -35.41054
          ],
          [
            -71.646126,
            -35.410275
          ],
          [
            -71.646432,
            -35.410035
          ],
          [
            -71.646722,
            -35.409778
          ],
          [
            -71.64672,
            -35.409754
          ],
          [
            -71.646707,
            -35.40973
          ],
          [
            -71.646365,
            -35.409407
          ],
          [
            -71.646647,
            -35.409214
          ],
          [
            -71.646701,
            -35.409158
          ],
          [
            -71.646782,
            -35.40909
          ],
          [
            -71.646929,
            -35.408913
          ],
          [
            -71.64712,
            -35.408714
          ],
          [
            -71.647393,
            -35.40842
          ],
          [
            -71.647195,
            -35.408232
          ],
          [
            -71.646364,
            -35.407494
          ],
          [
            -71.645843,
            -35.407101
          ],
          [
            -71.645483,
            -35.406895
          ],
          [
            -71.645395,
            -35.406871
          ],
          [
            -71.645309,
            -35.406865
          ],
          [
            -71.645274,
            -35.406838
          ],
          [
            -71.645234,
            -35.406777
          ],
          [
            -71.645162,
            -35.406738
          ],
          [
            -71.645078,
            -35.40669
          ],
          [
            -71.645,
            -35.406676
          ],
          [
            -71.644951,
            -35.406667
          ],
          [
            -71.644866,
            -35.406567
          ],
          [
            -71.644098,
            -35.406179
          ],
          [
            -71.643809,
            -35.406028
          ],
          [
            -71.64349,
            -35.405871
          ],
          [
            -71.643345,
            -35.405815
          ],
          [
            -71.64281,
            -35.405552
          ],
          [
            -71.640166,
            -35.404311
          ],
          [
            -71.640061,
            -35.40426
          ],
          [
            -71.64003,
            -35.404304
          ],
          [
            -71.639984,
            -35.404345
          ],
          [
            -71.63996,
            -35.404362
          ],
          [
            -71.639783,
            -35.404405
          ],
          [
            -71.639176,
            -35.404555
          ],
          [
            -71.63911,
            -35.404635
          ],
          [
            -71.638159,
            -35.40487
          ],
          [
            -71.637994,
            -35.404922
          ],
          [
            -71.637585,
            -35.405031
          ],
          [
            -71.637592,
            -35.404999
          ],
          [
            -71.637586,
            -35.404967
          ],
          [
            -71.637567,
            -35.404939
          ],
          [
            -71.637538,
            -35.404917
          ],
          [
            -71.637492,
            -35.404902
          ],
          [
            -71.63744,
            -35.404902
          ],
          [
            -71.637425,
            -35.404867
          ],
          [
            -71.637205,
            -35.404343
          ],
          [
            -71.637179,
            -35.404309
          ],
          [
            -71.637098,
            -35.404252
          ],
          [
            -71.637022,
            -35.404228
          ],
          [
            -71.636931,
            -35.404219
          ],
          [
            -71.636802,
            -35.404224
          ],
          [
            -71.636581,
            -35.404239
          ],
          [
            -71.636465,
            -35.404239
          ],
          [
            -71.636317,
            -35.404209
          ],
          [
            -71.636291,
            -35.404255
          ],
          [
            -71.636113,
            -35.404565
          ]
        ]
      }
    }
  ]
}